nombre,lat,long,ciudad/depto,postcode
Centro de Salud,-77.33625445889875,1.269819984083313,Nariño,-1
Hospital,-72.41330263463833,6.463664190075633,Guicán,-1
Hospital Fontibón,-74.14204024078133,4.672877031119754,Fontibón,110921
,-72.49844131320911,7.88219284036586,Cúcuta,5400
San Juan de Dios,-74.0383028734398,4.864455737891348,Chía,25001
Hospital San Rafael,-73.36122421829066,5.540494282675667,Tunja,15001
centro de Salud de Apulo,-74.59509811674484,4.519107580821327,Apulo,-1
Hospital Marco Tulio Afanador,-74.63581622889532,4.457019890349017,Tocaima,-1
Clínica del CES,-75.56538773102504,6.257549167725415,Medellín,0500
,-75.56110692543626,6.261548425186589,Medellín,0500
San Francisco,-76.6612142826014,5.696244879608173,Quibdó,-1
Clínica Medimas,-76.59778967857291,2.454862758667275,Popayán,190001
Clínica Flavio Restrepo,-75.48510175529655,5.051164642738115,Comuna Palogrande,17003
Clínica Santa Ana,-75.48818973224472,5.055191728117848,Comuna Palogrande,170004
Clínica Santillana,-75.49177928227877,5.060525133107149,Comuna Palogrande,170002
IMI,-75.49885955970848,5.061580666173796,Comuna La Estación,170004
Unidad Medica Cecimin,-74.05579481571552,4.692153899676271,Distrito Capital,110131
Clínica Odontologica Jasban,-74.05553732365001,4.693319319493526,Distrito Capital,110131
Instituto de Ortopedia y Fractura,-74.0503338381599,4.69762853973404,Distrito Capital,110111
LaFam,-74.05119214504487,4.69221793741653,Distrito Capital,110111
Clínica de la Sabana,-74.05198180414284,4.68810594335767,Distrito Capital,110111
Edificio Dalí - Clínica Estetica,-74.05710373371508,4.684658047487233,Distrito Capital,110131
Edificio Sura - EPS,-74.05333791225729,4.685887756501813,Distrito Capital,1100111
Clínica de Ojos,-74.0572218347308,4.684187655081132,Distrito Capital,110131
,-74.05516181438784,4.686144494196014,Distrito Capital,1100111
Secretaria de Salud,-73.86614822144446,7.062318574010163,Barrancabermeja,687031
Clinicentro Cedro Bolivar,-74.04481066688275,4.733937519358165,Distrito Capital,110131
Puesto de salud San fernando,-74.07989873849061,4.67256983436846,Distrito Capital,1112211
Cruz Roja,-72.3986911333882,5.341398768957134,Yopal,850001
Hospital de Caloto,-76.40902050192607,3.032242363604865,Caloto,-1
,-76.1433470283861,8.25554166699635,Valencia,-1
Hospital de Chapinero,-74.06330173201674,4.665594163090361,Distrito Capital,110221200
Sanitas CLL 95,-74.048580344016,4.681140581820472,Distrito Capital,1100111
Clínica Valle de Atriz,-77.28290691414156,1.217630566887607,Pasto,520002
Centro Hospital la Rosa,-77.27573510632921,1.192144552098227,Pasto,00059
,-72.5978024050847,7.931977992455273,El Zulia,-1
Hospital San Rafael,-74.3494659413308,4.806834931258237,Cundinamarca,253051
San José,-74.89511585180504,5.194191845929367,Mariquita,-1
Hospital San Juan de Dios,-75.3394911657282,6.174204048795701,Marinilla,50-05
,-72.10675707338658,7.000493823840401,Boyacá,-1
Clínica San José,-73.85037431786223,7.057348273066339,Barrancabermeja,687031
Clínica Santa Anta,-72.48881394304304,7.891281924710142,Cúcuta,540006
,-75.69958552123234,4.981362583861028,Chinchiná,-1
Clínica Magdalena,-73.85434130499618,7.061109484477385,Barrancabermeja,687031
Clínica 1 de Mayo,-73.85590771506125,7.058277239395068,Barrancabermeja,687031
Cruz Roja,-73.85553220579908,7.058330464480207,Barrancabermeja,687031
Cruz Roja Colombiana Sede Cúcuta,-72.49917757958387,7.877980347287973,Cúcuta,5400
Clínica Conquistadores,-75.58287196194983,6.240811261459186,Medellín,0500
Centro Médico Nueva Vida,-75.58421675449499,6.28402114578509,Medellín,0500
,-74.03356743342289,4.694334116510731,Distrito Capital,110111
EPS Sura - Comfama,-75.50677702162714,6.347346340441959,Copacabana,-1
Instituto de ortopedia infantil Roosevelt,-74.06460947654988,4.598528879418438,Distrito Capital,3324534
CAMI Galán,-74.12055004687281,4.622447562133402,Distrito Capital,10000
Centro de Atención Básica Quirigua,-74.09578244500443,4.713099521335607,Distrito Capital,111051
Hospital serafin Montaña Cuellar,-75.09620491737438,4.133766681501498,San Luis,-1
Los Angeles IPS,-77.27767191269551,1.217813040919708,Pasto,520002
Los Angeles IPS,-77.27762874589418,1.217931561030582,Pasto,520002
E.S.E. Centro Hospital Consacá,-77.46891182294081,1.208102438455114,Consacá,-1
E.S.E. Centro de Salud Juan Pablo II,-77.52315891354658,1.349165426456693,Linares,-1
Centro Médico Uniandes,-74.06691693067451,4.601279065668706,Candelaria,TEL. 3394949 EXT. 2525
Policlínca,-73.1193997738503,7.10329124456004,Bucaramanga,680005
Hospital Integrado de Landazuri,-73.80864828185513,6.221589462006534,Landázuri,097
,-74.61091124763392,10.027636427504007,Chibolo,-1
ESE Hospital el Bordo,-76.9830752573318,2.11457844458053,Cauca,-1
,-75.3876738655689,9.30615774159736,Sincelejo,70001
,-73.79768760235125,5.105194474413622,Cundinamarca,-1
Fe y esperaanza,-73.33315816988544,5.501820181433061,Soracá,057117
Clínica General del Norte,-74.2455421604627,11.006764674861643,Ciénaga,-1
Hospital San Cristobal Cienaga,-74.24572706524671,11.01480183035764,Ciénaga,-1
UPA Rionegro,-74.06447151042364,4.684791990299942,Barrios Unidos,111211139
Hospital Cafam Suba,-74.10301242322481,4.747664646004466,Distrito Capital,1161111
E.S.E. Centro De Salud Santo Eccehomo,-73.62150980447069,5.618238027171628,Sutamarchán,153860
Urgencias San Juan de Dios,-74.42572173037539,9.241592360546917,Mompós,-1
Clínica Asorsalud SM Ltda,-73.35061172304461,5.554792636023251,Tunja,150003
IPS Colmédica Las Nieves,-73.35946577882389,5.538558063042586,Tunja,150002
Profamilia,-73.35730525946188,5.543512941284575,Tunja,150003
Salud Coop ISP Norte,-73.35043436197346,5.556894398243998,Tunja,150003
Centro Cancerologico,-73.35041265284424,5.554956418411251,Tunja,150003
Clínica de Urabá,-76.63778443247952,7.887784491791962,Apartadó,057840
Centro Clinico Bautista,-72.60048335681476,7.609426935636606,Chinácota,-1
IPS,-72.59916102777011,7.611224183315073,Chinácota,-1
Clínica Chía nueva eps,-73.35142133107215,5.553154393047976,Tunja,150003
Salud Total,-74.07885820903066,4.635971343808706,Teusaquillo,11311
Unidad Médica Sede 2,-74.47273347834275,5.010365477583946,Villeta,-1
Unidad Médica Sede Principal,-74.47103974716848,5.011092440046184,Villeta,-1
Unidad Médica Sede 1,-74.47105215238517,5.011327720068266,Villeta,-1
Clínica Monserrat,-74.04661797284503,4.716887219560675,Distrito Capital,110121
Hospital Departamental San Antonio,-76.15211441528656,4.404619333012363,Roldanillo,761550
Centro de Salud Mata de Caña,-75.82785630006758,9.075189873423454,Lorica,-1
Hospital de Engativá Emaús,-74.1407512717113,4.715288455349366,Distrito Capital,111031
Centro de Salud Loreto,-75.55590394286033,6.233117680174274,Medellín,0500
Hospital,-73.94887291190128,4.40596379028139,Cáqueza,-1
Clínica Shaio,-74.07309950627433,4.69826665402266,Distrito Capital,111121
EPS Torres de Comfandi,-76.50076110271243,3.478713320959457,Comuna 5,750004
Hospital Pedro Antonio Villamizar,-72.48126721270174,7.303843281593061,Chinácota,-1
Hospital La Buena Esperanza,-76.49173220043295,3.581488194359565,Yumbo,760501
Centro medico Versalles,-76.49017995578424,3.582989979951179,Yumbo,760501
Centro Médico de Yumbo,-76.49158275109937,3.58148014773252,Yumbo,760501
Clínica Santa Isabel,-76.4915234072249,3.58191969473495,Yumbo,760501
SOS Comfandi,-76.48720261995798,3.581812071098199,Yumbo,760501
,-74.60185795401621,5.070907545111083,Guaduas,-1
Cruz Roja Colombiana Sede Sincelejo,-75.37931233042009,9.29759395112498,Sincelejo,700020
IPS Clínica Guadalajara,-76.30441267393996,3.895339757693478,Buga,762001
Profamilia,-76.52645197121538,3.46280865968771,Comuna 2,760046
,-70.20665724037428,6.301270934878119,Cravo Norte,-1
Clínica de Traumas y Fracturas,-75.88022685019085,8.74946517660618,Montería,210008
CLINICA SERVIMEDICOS,-73.64042742465719,4.142271295737459,Villavicencio,500005
CENTRO DE ESPECIALISTAS,-73.64094240878816,4.142086642410561,Villavicencio,500005
CRUZ ROJA COLOMBIANA,-73.63628072951919,4.153646041258128,Villavicencio,500001
E.S.E. Centro de Salud Floresta,-72.91827634247795,5.859901036156856,Boyacá,150601
Hospital Baudillo Acero,-73.49170312569794,5.326099784008704,Turmequé,153640
Hospital El Pueblo,-74.8392336195282,10.963165618771399,Barranquilla,080020
E.S.E Maria Auxiliadora,-75.62366417012437,2.191309152258924,Garzón,414020
Puesto de Salud,-75.29292357481002,9.470533819809589,Los Palmitos,-1
Puesto de Salud Vereda Arkakay,-75.95209731131409,5.365307644845387,Mistrató,-1
,-73.48787360177602,4.268042842503462,Meta,-1
ESE Hospital La Vega,-76.77604526643114,2.000734178392378,La Vega,-1
Hospital Materno Infantil,-76.44229146074494,3.69976095527042,Vijes,760550
IPS Sinergia Salud,-76.19482046341271,4.083820848328259,Tuluá,-1
Doctora María Consuelo Carranza B. Cirujana Plástica,-74.029722151523,4.711593293335312,Distrito Capital,110121
PAU Salud Total,-75.6580656800433,4.552354399759082,Comuna Quimbaya,630004500
AsmetSalud,-75.65813424401125,4.552205537158727,Comuna Quimbaya,630004500
Neuroconexiones,-75.65677746534456,4.556990262766305,Comuna Quimbaya,630004506
Oncomedic Sede II Salud@rte,-75.21896107447371,4.4379445227448,Ibagué,730006
Saludcoop Laureles,-75.59296335427558,6.243626323640001,Medellín,0500
puesto de salud,-73.6748664016833,2.976545036112014,Meta,-1
Centro Medico Especialista Santa Barbara,-73.76043046184013,3.984942721713509,Acacías,507001
Gestion Salud Ips,-75.51803752180754,10.40912818924852,Cartagena,3110
centro medico los samanes,-72.488634235039,7.896483817638654,Cúcuta,540003
FUNDACIÓN MEDICO PREVENTIVA,-72.49129792004851,7.893767242820104,Cúcuta,540003
HOSPITAL UNIVERSITARIO ERASMO MEOZ,-72.49047833755621,7.905355391595549,Cúcuta,540003
Hospital Gonzalo Gónzalez Ochoa,-75.67355334163216,6.918975373069287,San Andrés de Cuerquia,057
Puesto de Salud Argelia,-75.4057814586327,9.280063535913683,Sincelejo,700020
ESE,-73.52427394414474,5.365537225173313,Turmequé,153640
IPS VALLEJO,-75.41118451723739,9.304457388719555,Sincelejo,700020
Nueva sede E.P.S. Sanitas,-72.49655580409024,7.88972942860434,Cúcuta,-1
Socorro Médico Santafé,-72.50354136601406,7.893053356126842,Cúcuta,5400
NORTE SALUD,-72.49954286292417,7.876153595310313,Cúcuta,47
Hospital Santa Ana de los Caballeros,-75.99673304118885,4.79857146437655,Ansermanuevo,-1
Hospital,-73.7479052162899,9.660164069369443,El Paso,-1
IPS Los Alpes Saludcoop,-72.64917257506423,7.370768755120054,Pamplona,-1
Clínica Pamplona,-72.64963525611941,7.370050593656146,Pamplona,-1
Bienestar Familiar,-72.50009623617169,7.890303756609796,Cúcuta,5400
Bienestar Familiar,-72.49974587261903,7.888472897499611,Cúcuta,5400
Coomeva EPS,-72.49752232134517,7.889312596559506,Cúcuta,5400
Multiterapias,-72.49771133326173,7.889288624316436,Cúcuta,5400
SALUDCOOP,-72.49676660895504,7.890509280875591,Cúcuta,5400
Puesto de Salud El Campano,-74.09682574049243,11.110238850443523,Santa Marta,470008
San Roque,-75.6870912049048,4.389906662190924,Córdoba,-1
Instituto Neurológico de Colombia,-75.56336894964569,6.252276699172171,Medellín,0500
Hospital Paez,-75.97135917626392,2.645478971497454,Páez,-1
Camu Los Cordobas,-76.3545042684094,8.8971431625923,Los Córdobas,057820
Jaibaná IPS principal,-75.4880473237098,5.056758389640009,Comuna Palogrande,170002
Llano Salud,-73.75161504663448,3.12374349341755,Meta,-1
Hospital Local,-73.75224980816182,3.121336294645175,Meta,-1
Consultorio Odontológico,-73.7525268300617,3.124169629374904,Meta,-1
Centro de Salud,-75.87913753805442,1.328237155336922,Albania,-1
Hospital Nuestra Señora del Pilar,-73.34919962381697,4.509513822087001,Medina,-1
CAP San Cristóbal,-74.0936791740411,4.575236492508594,San Cristóbal,110421
E.S.E. Salud del Tundama,-73.02570292068226,5.833500891007361,Zona Urbana,150487
RESTAURANTE CENTRO REHABILITACION HFPS,-76.4611553529321,2.962712884218945,El Aguila,-1
Odontología,-74.13259702102798,4.599477291762526,Distrito Capital,110841
Instituto Laboratorio Clinico,-74.06701231673263,4.625975924274286,Santa Fé,110001000
HOSPITAL SAN JOSE DE TIBU,-72.73281600592789,8.637564841402053,Tibú,-1
veterinaria,-74.0493130061724,4.724485079511339,Distrito Capital,110121
Clínica Maria Concepcion,-76.68762767115791,5.157889152732622,Istmina,274010
Clínica Santa Gertrudis,-75.5818312648518,6.168631759565955,Envigado,055421
Centro de salud Miramar,-74.2537740275694,11.014496896720175,Ciénaga,-1
Hospital San José de Tierralta,-76.05627623731479,8.177447223671606,Tierralta,-1
La Sierra,-76.76164423476969,2.180637229319387,La Sierra,-1
Sucre,-76.92595904126975,2.037631148524127,Almaguer,-1
IPS ESE Hospital San Vicente de Paúl,-75.88330937890194,5.298254179656936,Mistrató,-1
Centro de Salud COLSUBSIDIO,-73.03442672168623,5.830870230696348,Zona Urbana,150461
Clínica San Francisco de Asis,-74.08065495379493,4.608177036704376,Distrito Capital,110321
Hospital Piendamó,-76.53636063805195,2.648780267881364,Piendamó,-1
Puesto de Salud Saladito,-76.60639705494178,3.481666265447501,Cali,-1
Puesto de la Cruz Roja,-74.05499476305759,4.605783919529301,Distrito Capital,3394949 EXT.
Hospital Paispamba,-76.61526888035579,2.255062243072814,Sotará,-1
Hospital,-77.16317570207853,1.796264691273166,Cauca,-1
Florencia,-77.07200138267056,1.683517280934325,Florencia,-1
Droguería Santa Monica,-76.49268824030892,3.438577499622454,Comuna 13,760020
,-72.40541702395171,5.333736535990084,Yopal,85001
Servisalud,-73.11106916792421,7.11579302078141,Bucaramanga,680003
Hospital Silvia,-76.38286477307311,2.6108827499678,Silvia,-1
Hospital del Rosario,-75.32191062673596,2.691589748692678,Campoalegre,-1
Hospital de Suarez,-76.69615256959956,2.95340369109735,Suárez,-1
Miranda,-76.22787692932938,3.253697861324241,Miranda,191520
SALUD TOTAL EPS S.A 20 DE JULIO,-74.80468886288403,10.990260623693956,Barranquilla,080006
SALUD TOTAL EPS S.A UUBC REINA CATALINA,-74.81433115283775,11.000330725985663,Barranquilla,80020
IPS FUNDACION GRUPO DE ESTUDIO BARRANQUILLA SEDE METROCENTRO,-74.80042574311095,10.930357676283819,Metropolitana,083001
FUNDACION GRUPO DE ESTUDIO BARRANQUILLA LAB. REYFALS SAN JOAQUIN,-74.7882055150172,10.969807774122216,Barranquilla,080004
SALUD TOTAL EPS S.A UUBC CORDIALIDAD,-74.80722396949886,10.955154698632327,Metropolitana,080006
IPS FUNDACION GRUPO DE ESTUDIO BARRANQUILLA SEDE CHILDREN SIERRITA,-74.81359371299654,10.949018977871248,Metropolitana,080006
TOMA DE MUESTRA LABORATORIO REY FALS SIMON BOLIVAR,-74.77940275648534,10.937120531040335,Barranquilla,083002
FUNDACION GRABIELLA WILLE DE LOPEZ ?FUNDABELA?,-74.83420883621373,10.979099532885215,Barranquilla,080020
QUIMIO SALUD LTDA,-74.81134233380413,10.998479498850742,Barranquilla,80020
ips cemol,-74.78774937184649,10.942625345949523,Barranquilla,083001
IPS UNIVERSITARIA SEDE PASO NUEVA COLOMBIA,-74.8189055764947,10.969353642608269,Barranquilla,080006
IPS UNIVERSITARIA SEDE PASO REBOLO,-74.77454561123434,10.9664224910685,Barranquilla,080004
IPS UNIVERSITARIA SEDE PASO VILLATE,-74.8097860658419,10.963304758364075,Barranquilla,080006
IPS UNIVERSITARIA PASO LAS MALVINAS,-74.83187145869478,10.955713017202726,Barranquilla,080020
Puesto de salud (P.A.S.O) SEDE LAS NIEVES,-74.7793609307885,10.952294625631481,Barranquilla,080004
IPS UNIVERSITARIA SEDE PASO LA LUZ,-74.77713746333366,10.951413687607925,Barranquilla,080004
IPS UNIVERSITARIA SEDE PASO JULIO MONTES,-74.78141692781793,10.961643716612173,Barranquilla,080004
IPS UNIVERSITARIA SEDE PASO PRIMERO DE MAYO,-74.7648229388292,10.945812229355141,Barranquilla,083002
IPS UNIVERSITARIA SEDE PASO BUENA ESPERANZA,-74.80777901912701,10.964634295845457,Barranquilla,080006
IPS UNIVERSITARIA SEDE PASO GALAN,-74.79017065221622,10.936999328720447,Barranquilla,083001
IPS UNIVERSITARIA SEDE PASO VILLANUEVA,-74.79623521061936,10.934993287833919,Barranquilla,083001
DMM DIPROMEDICAL ANDINA IPS S.A.S,-74.80051023269495,10.970477152909638,Barranquilla,080006
IPS UNIVERSITARIA SEDE CARLOS MEISEL II,-74.81395396719493,10.97522784799034,Barranquilla,080006
IPS UNIVERSITARIA SEDE PASO BARLOVENTO,-74.77701483609023,10.989415727854066,Barranquilla,080002
IPS UNIVERSITARIA SEDE PASO LA UNIÓN - SAN JOSE,-74.79000192450533,10.961948985525765,Barranquilla,080004
IPS UNIVERSITARIA SEDE PASO SAN SALVADOR,-74.80369443389152,11.024174977400435,Barranquilla,080001
IPS UNIVERSITARIA SEDE PASO UNIVERSAL,-74.82811862918689,10.936105734023101,Metropolitana,083010
Centro de recuperación nutricional ROSOUR 7,-74.82811544406368,10.958433699153801,Barranquilla,080020
Cruz Roja Colombiana Unidad Mpal Miranda Cauca,-76.23030064045103,3.253231576050695,Miranda,191520
E.S.E. Hospital Manuel Elkin Patarroyo,-74.04702290258733,7.968240955430986,Santa Rosa del Sur,-1
IPS ESE Hospital San Antonio de Padua,-75.8856203534259,2.393226349861806,La Plata,-1
UPA San Cristobal,-74.02503071649777,4.739894454124567,Distrito Capital,110131
Hospital,-73.68639185382301,3.83280723961974,Meta,-1
Cruz Roja,-72.9085784805062,11.542586133312682,Riohacha,44001
Cruz Roja Colombiana,-72.92653436112256,10.653443483854943,El Molino,-1
Centro de Diagnostico Salud Social IPS,-75.41016913348695,10.322737338162625,Turbaco,-1
Centro de Salud de Pumarejo,-75.40937528343738,10.320066863811547,Turbaco,-1
E.S.E Hospital Regional Fray Luis de León,-74.78810677619781,9.794607784615863,Plato,-1
ESE HOSPITAL GALAPA,-74.88659103718243,10.897174643629228,Galapa,-1
Universidad Pascual Bravo,-75.58753582051364,6.274902640960704,Medellín,0500
El Retorno,-72.63236166242136,2.33123664383757,Guaviare,-1
Urgencias Clínica Marly,-74.06540592498942,4.63693283192174,Distrito Capital,54122
Clínica Santa Clara;Colegio Santa Maria Goretti,-75.61863544731543,4.865373221012703,Santa Rosa de Cabal,661020
,-74.09225207120677,4.743994294423828,Suba,110011
ESE Hospital Regional Centro,-72.49722333885897,7.899270716624812,Cúcuta,540003
Cruz Roja,-75.73616724798572,4.936819138740191,Marsella,66440
Hospital Local Sólita Caqueta,-75.62069563529644,0.871635494530693,Vda. El Vergel,-1
Hospital Local San Roque,-75.86986061526004,1.415285650545798,Belén de los Andaquíes,-1
Centro de Salud Chiles,-77.84686373933708,0.811943351985349,Cumbal,-1
Hospita Nuestra Señora de la Candelaria Guarne,-75.44532677489116,6.281700448253446,Guarne,-1
Club de leones Quirigua,-74.10325256475073,4.711873248901327,Distrito Capital,111011
San Sebastian,-76.76668335113858,1.839009966706186,San Sebastián,-1
Hospital Francisco de paula Santander,-76.48291720432246,3.00477629182879,Santander de Quilichao,-1
piscina restaurante,-73.46607931242038,7.723085626488484,San Alberto,-1
Cruz Roja,-75.61702436170644,4.865845960351692,Santa Rosa de Cabal,661020
Defensa Civil,-75.62384102828133,4.869026557329903,Santa Rosa de Cabal,661020
Hospital Santa Margarita,-76.56924100018294,3.651255133062392,La Cumbre,760517
Hospital San Antonio de Padua,-75.76795670541868,2.25535242456067,Agrado,-1
hospital santa teresa,-75.72794502006766,2.483800441183519,Tesalia,-1
IPS ESE San Sebastian,-75.89037616146753,2.393424162776711,La Plata,-1
Hospital San Vicente de Paul - Río Negro,-75.43475736262742,6.152865148239471,Rionegro,-1
Hospital San José,-77.61509556704817,1.082059234207264,Nariño,-1
hospital ESE Tulia Duran De Borrero,-75.05465456605779,3.14888199450138,Baraya,-1
ESE Hospital San Pedro,-75.81665757451357,6.848574427210423,Sabanalarga,-1
hospital san antonio,-70.23501070423933,1.260128827634105,Mitú,-1
Hospital Santa Ana,-76.18427141917368,4.339510720817287,Bolívar,761007
E.P.S Confamiliar,-76.13155478026837,1.722776690475513,Palestina,-1
,-73.83641300084126,3.796388959978231,Meta,-1
Hospital Internacional de Colombia,-73.06913911639386,7.03589018184698,Floridablanca,681011
Puesto de Salud IPC,-72.924029010264,11.530927241274469,Riohacha,24-58
,-72.25257134320205,11.371131873146538,Maicao,-1
kekerkre,-74.05209294817892,4.652180687260824,Distrito Capital,52966
fundacion manos que construyen paz,-72.89580102348945,11.54057263253236,Riohacha,44001
Saludcoop,-75.61044775283844,1.612057868342703,Florencia,57 038
CES,-73.14552977026051,6.554813782869246,San Gil,684031
Drogueria Cafam,-74.07144215255983,4.606058175401131,Candelaria,110311
Clínica Calidad,-76.54742340913647,3.419822739814606,Comuna 19,76000
Clínica de Antioquia,-75.55625095365171,6.333522318994994,Bello,051058
Bomberos Bello,-75.55312131864478,6.331891871189669,Bello,051058
Fundación Hogar Claret,-75.52741838020127,6.23954458825159,Medellín,0500
Hospital San juan de Dios,-75.18688612941865,6.05877032230876,Cocorná,-1
basurero,-75.5396995447311,6.293778351631317,Medellín,0500
Basurero,-75.53852741939131,6.293325058307687,Medellín,0500
Medicare i.p.s,-72.52162942924348,7.910547477697378,Cúcuta,540013
Urgencias Hospitalarias,-75.18694882605439,6.058807789415937,Cocorná,-1
Unidad de Urgencias EPS Sanitas,-74.11245463714977,4.634316923760338,Distrito Capital,00001
Mamá Dominga,-76.34338835605874,2.631350686965249,Silvia,-1
Coomeva,-76.38806348087842,3.400040442496731,Candelaria,-1
Coomeva,-76.38803481476957,3.400030635670021,Candelaria,-1
Puesto de salud de Villagorgona,-76.38696092533498,3.394643754138457,Candelaria,-1
IPS ESE Hospital Municipal Rubén Cruz Vélez - Puesto de Salud Bosques de Maracaibo,-76.20582824921243,4.104598496647981,Tuluá,-1
IPS ESE Hospital Municipal Rubén Cruz Vélez - Puesto de Salud La Independencia,-76.20366387417496,4.099032158569486,Tuluá,-1
,-72.44447836912093,11.778159019090111,Manaure,-1
consulta externa,-72.4448174171043,11.778528996296188,Manaure,-1
Hospital Armado Pabon Lopez,-72.44482060222751,11.778614826984693,Manaure,-1
Reabilitación Integral Marta Omaña y Asociados,-72.49286667704646,7.892601739183846,Cúcuta,540003
Fisio Salud,-76.29479200929644,3.532147786052548,Palmira,76520
VETERINARIA,-72.50163037590954,7.897592827247536,Cúcuta,047
Clínica Palmira,-76.30112353131565,3.529612092704497,Palmira,763533
,-72.49957035556659,7.88023122356617,Cúcuta,47
Profamilia Joven,-76.5415311826626,3.419721486424265,Comuna 19,76000
Hospital del Villavieja,-75.21965115656198,3.219660545098208,Villavieja,-1
La Candelaria,-73.97146364969646,9.008003890345833,El Banco,-1
Hospital,-75.15710262905317,6.233248354044747,Guatapé,053840
Jericó,-72.49844122939008,7.882206921963217,Cúcuta,5400
Hospital san rafael de matanza,-73.01317767513201,7.323478057415088,Matanza,-1
Hospital,-72.9456293423802,7.348112638480103,California,-1
Hospital JUAN PABLO II,-73.0157401067512,6.696052120285202,Aratoca,-1
indigenas,-76.89521338223898,6.592479289702965,Vigía del Fuerte,-1
maestros,-76.89526551767672,6.59236563109593,Vigía del Fuerte,-1
,-76.91775081112999,6.600083352261976,Bojayá (Bellavista),-1
comunidades,-76.89532335280862,6.592260773487254,Vigía del Fuerte,-1
institucion educativa,-76.89529527343298,6.592314250029489,Vigía del Fuerte,-1
hogar infantil,-76.89536895036188,6.592177122093574,Vigía del Fuerte,-1
Centro de Salud,-76.71821181091453,7.936634977858489,Turbo,057840
,-75.23272851807427,4.444438988961679,Ibagué,73001
,-75.78850167210632,6.154216730126194,Armenia,-1
Maria Antonia Toro de Elejalde,-76.132100525984,6.770608059366197,Frontino,-1
Nuestra Señora del Rosario de Chivata,-73.28283665981196,5.55670329085163,Chivatá,-1
San Antonio de Padua,-73.54986330780025,5.752674198705165,Gachantivá,154240
Centro de Salud Siachoque,-73.24495112801992,5.512010396397244,Siachoque,153460
Morgue del Hospital,-75.63140661790477,2.1980827358515,Garzón,414020
Centro de Salud Palermo,-73.19319614486571,5.896555266372701,Paipa,-1
Camu La Granja,-75.891692706999,8.737376879668375,Montería,230004
Hospital militar de oriente,-73.5674668132072,4.08397884720307,Meta,-1
Clínica Medellín,-75.56389457879371,6.251295597405715,Medellín,0500
Hospital San Francisco deAsís,-75.85234914314994,6.302411963357144,Anzá,-1
Consultorios Country,-74.05718101486235,4.668610223309287,Distrito Capital,110221246
Hospital Herasmo Meos,-72.4906523458661,7.903294616881311,Cúcuta,540003
Hospital Sumapaz - Icononzo Tolima,-74.5304614056984,4.177792292644256,Icononzo,-1
Punto de atención Coconuco,-76.49590186198564,2.343345057343015,Puracé,-1
IPSI Totoguampa,-76.4048945100889,2.510791594325781,Totoró,-1
Cafe Salud,-73.6124415072463,5.936784545930095,Barbosa,-1
Centro de salud,-73.36924226304741,5.166319838582609,Chinavita,-1
Hospital Nuestra Señora del Carmen,-74.44526707129054,4.581594752798935,El Colegio,252601
Hospital San Francisco de Asís,-75.1016321158602,5.964108628266416,San Francisco,057
Hospital San Juan de Dios,-75.62456732019132,5.61285433076327,Valparaíso,-1
Hospital,-72.27867770264531,4.815548925435479,Casanare,-1
Hospital San Juan de Dios,-75.712994051739,5.665353124005094,Támesis,-1
Hospital San Juan de Dios,-75.31014846965063,5.717700791532707,Sonsón,-1
San Rafael,-74.1603939265223,5.130131642183215,Cundinamarca,-1
Clínica Vascular Navarra,-74.0555222362243,4.693858275867569,Distrito Capital,110131
PUESTO DE SALUD,-73.09687994695595,6.732490265037228,Jordán,-1
Hospital Nuestra Señora de Guadalupe,-75.24048806493715,6.815611084238014,Guadalupe,-1
Hospital San Antonio,-75.52329113107864,5.944496735040047,Montebello,-1
IPS ESE Hospital Santamaría,-75.56483201084463,5.871353984834116,Santa Bárbara,-1
IPS Comfama SURA,-75.56455540803991,6.245654492750901,Medellín,0500
Hospital del sur,-75.62183741814674,6.165665655489931,Itagüí,055413
Hospital San Pio X,-74.75619460770238,6.411657917464282,Caracolí,-1
"Hospital El Valle, Chocó",-77.4272298757444,6.103281664740422,Bahía Solano (Mutis),-1
IPS ESE Hospital San José de Tadó,-76.55574395677876,5.265162174470788,Tadó,-1
Hospital La Sagrada Familia,-75.300184230796,6.979535377869212,Campamento,-1
HOSPITAL SAN RAFAEL,-75.01846360363035,6.591684685282132,Yolombó,-1
HOSPITAL MARIA AUXILIADORA,-76.68765130812486,7.672801080608025,Chigorodó,-1
Hospital San Rafael de Pacho,-74.16031555572764,5.130172797327788,Cundinamarca,-1
Hospital San Rafael,-75.7662761338324,6.322010361719379,Ebéjico,-1
Centro de Salud Tamasagra,-77.29291457125461,1.199788344878272,Pasto,(+057)
Nueva eps florida,-76.2371848651655,3.316323250885148,Florida,191520
Hospital San Rafael,-69.94279300063432,-4.208304849941925,Leticia,-1
,-73.0514397220146,5.100403462378694,Páez,-1
San Vicente de caldas,-75.63380216583177,6.086645682416787,Caldas,-1
Chinavita,-73.36692332571543,5.165990345968851,Chinavita,-1
Hospital benjamin barney,-76.22640347457052,3.321716335025059,Florida,-1
Urgencias benjamin barney,-76.22612175880485,3.321399499085089,Florida,-1
,-74.09694937356424,4.670555243940697,Distrito Capital,111061
Centro Odont. El Bosque,-74.09659582488838,4.669804560692484,Distrito Capital,111071
Hospital San Rafael,-74.86822100673025,7.491111929933766,Zaragoza,-1
HOSPITAL LA PAZ,-74.64018001532551,5.872304995568186,Puerto Triunfo,-1
HOSPITAL PEDRO CLAVER AGUIRRE,-75.69150905461046,7.011665978761357,Toledo,-1
Hospital Isabel La Católica,-75.34783400923293,7.581576972695188,Cáceres,-1
Hospital San Antonio,-75.3987289253025,7.578871964903044,Tarazá,-1
Hospital Octavio Olivares,-74.58385605675142,6.184659970090451,Puerto Nare,-1
HOSPITAL LA MISERICORDIA,-74.84242905247504,6.673345963683317,Yalí,-1
Hospital San Rafael,-75.16193010236692,6.474789657795924,Santo Domingo,-1
HOSPITAL,-75.45999686564447,6.644925025497713,Santa Rosa de Osos,-1
HOSPITAL,-75.5598020307502,6.456679969256328,San Pedro de Los Milagros,123456
Hospital Héctor Abad Gómez,-73.91426705118297,7.005531934380912,Yondó,-1
Hospital Laureano Pino,-75.68223607131057,6.848170838572628,San José de la Montaña,-1
HOSPITAL,-75.74384507129267,6.500706921503593,Sopetrán,-1
HOSPITAL,-75.764862022948,6.613512921345631,Olaya,-1
Hospital El Sagrado Corazón,-75.55104704906644,7.113114918898447,Briceño,-1
HOSPITAL,-75.90720207771707,6.719974993951752,Buriticá,-1
HOSPITAL,-76.06740505779632,6.632295928167139,Abriaquí,-1
Hospital,-76.17404901770134,6.902525971910308,Uramita,-1
HOSPITAL,-75.10007702136443,5.964371987664123,San Francisco,-1
HOSPITAL,-75.95324806280078,6.681157981260071,Giraldo,-1
HOSPITAL,-74.9963930467461,6.187541919858603,San Carlos,-1
HOSPITAL,-75.73262203821946,6.208223930663138,Heliconia,-1
HOSPITAL,-75.02634301170862,6.294396936085519,San Rafael,053830
,-76.0258200054006,6.750361991345727,Cañasgordas,-1
Hospital,-75.24154200544218,6.814710951656224,Guadalupe,-1
HOSPITAL,-75.98264700144865,6.40431193370398,Caicedo,-1
HOSPITAL,-75.33208508372215,6.282817923584531,San Vicente,-1
HOSPITAL,-75.26192101044698,6.136575925250128,El Santuario,-1
HOSPITAL,-75.15655906263237,6.232028954771067,Guatapé,053840
HOSPITAL,-75.62426104544936,5.614394924566568,Valparaíso,-1
Hospital,-75.7350840546386,5.965160976209859,Venecia,-1
HOSPITAL,-75.17463706757798,5.609792924448186,Nariño,-1
Hospital,-75.14036606389146,6.373931977108697,Alejandría,-1
HOSPITAL,-75.52304000925956,5.948655919213792,Montebello,-1
HOSPITAL,-75.1865460756069,6.057620995745594,Cocorná,-1
HOSPITAL,-76.13291507933441,6.311032918409154,Urrao,-1
HOSPITAL,-75.82094500180585,5.865956961199714,Tarso,-1
HOSPITAL,-75.9047130715697,6.045372939733312,Concordia,-1
HOSPITAL,-75.79274425621662,6.062640666099128,Titiribí,-1
HOSPITAL,-75.98471205093351,6.113336931063486,Betulia,-1
HOSPITAL,-75.713031015932,5.664981973332573,Támesis,-1
HOSPITAL,-75.83878705617713,5.793463976127782,Pueblorrico,-1
HOSPITAL,-75.90474500662079,5.799985934987092,Hispania,-1
HOSPITAL,-75.56522503828444,5.873979951279352,Santa Bárbara,-1
HOSPITAL,-75.67996507846473,5.932993997857949,Fredonia,-1
HOSPITAL,-75.70899202824978,6.111181943757572,Angelópolis,-1
IPS ESE Hospital San Fernando,-75.70288924836818,6.042560224485356,Amagá,-1
HOSPITAL,-75.98067306325129,5.748155933799495,Betania,-1
Hospital Copa,-75.50518202927225,6.349484983036689,Copacabana,-1
Hospital San Sebastián de Urabá,-76.78393003892744,8.424318998745974,Necoclí,-1
E.S.E. HOSPITAL PEDRO NEL CARDONA,-76.42773544769382,8.848607584627985,Arboletes,057820
HOSPITAL SAN BARTOLOMÉ,-76.82085366351127,6.980357558751507,Murindó,-1
E.S.E. HOSPITAL LAUREANO PINO,-76.52569801902492,8.762890219462122,San Juan de Urabá,-1
HOSPITAL,-75.87763307025381,5.653781990493087,Andes,-1
Hospital Francisco Luis Jimenez Martínez,-76.65483003841123,7.750752947759764,Carepa,-1
HOSPITAL,-75.61324202789939,6.171280943882948,Itagüí,90261
HOSPITAL,-75.62133701852727,6.165312945004388,Itagüí,055413
HOSPITAL,-75.56986006310133,6.244571969956041,Medellín,0500
HOSPITAL,-75.63456600866797,6.086729920543689,Caldas,-1
HOSPITAL,-75.64302008002781,6.157162969091672,"La Estrella, Antioquia",055413
HOSPITAL,-75.44955804343218,6.375112987265823,Girardota,051037
HOSPITAL,-75.56404000481376,6.33907792823743,Bello,051058
Hospital La Anunciacion,-76.4364637749255,7.24424032249749,Mutatá,057
Centro de salud Montebello,-76.55264340697585,3.484179327656989,Comuna 2,760050
E. S. E. Hospital Tobias Puerta,-76.17673164581201,6.900068230261752,Uramita,-1
ESE Hospital San Rafael de Venecia,-75.83671714518842,5.970304531092268,Venecia,-1
,-73.10238191201809,6.755756919504336,Los Santos,-1
Clínica de Fracturas,-76.30302261911767,3.895738484827461,Buga,762001
Hospital centenario sevilla,-75.92815105213768,4.268859994243854,Sevilla,-1
puusto de salud el Retiro,-76.5003601124646,3.410340628030525,Comuna 15,760020
Centro Odontologíco Fuerza Aérea,-74.07655050344893,4.641328888679169,Teusaquillo,111311091
Centro Médico,-76.56212451293153,7.884212795211653,Apartadó,-1
Centro Odontológico Santa Ines,-76.63321126610805,7.879711545569421,Apartadó,057840
centro de salud,-74.35152068107476,4.518832570578212,Granada,-1
Puesto de Salud La Tebaida,-75.01859427750082,6.000329430269147,San Luis,-1
Angel Laboratorio,-76.5340360010258,3.258067682724715,Jamundí,764001
Centro Médico Jamundí,-76.5392914543156,3.263752792371179,Jamundí,764001
,-73.34616772180105,5.552392897144671,Tunja,150004
,-72.25968120874995,5.243675584780647,Casanare,-1
JaveSalud,-74.05360412150208,4.705021965066322,Distrito Capital,110131
PUESTO DE SALUD,-75.52233433683138,7.640531340123204,Tarazá,-1
Hospital Regional Manuela Beltran,-73.26399782951529,6.466925169505288,Pinchote,7272042
Hospital Santa Cruz de Urumita,-73.01102050853129,10.55918671955493,Urumita,-1
Centro de especialidades medicas,-73.36016005186376,5.534835073110003,Tunja,150002
Centro de Salud,-73.5134179546115,5.936208625363065,Togüí,-1
ESE HOSPITAL LOCAL,-76.49593832326445,0.495388541058958,Puerto Asís,-1
Centro de Salud,-72.30246554385174,5.630887660164944,morcote,-1
Hospital San Juan Bautista,-75.48459934402034,3.726829138102829,Chaparral,73168
San Esteban IPS,-75.63617944120983,6.278243667565647,Medellín,0500
Centro de Medicina Familiar,-75.63586436546954,6.277877965130187,Medellín,0500
,-75.17669633354964,5.081165318214829,Herveo,-1
,-73.6116650077363,8.305924951696198,Aguachica,205010
Hospital de Florencia,-75.04208372295429,5.522795391210593,Samaná,-1
Urgencias,-75.56151411829242,6.457651348015105,San Pedro de Los Milagros,123456
Hospital Local Cumaribo,-69.80090866994078,4.444200691454455,Vichada,-1
ESE RIVERA,-75.26060924260032,2.779430836665625,Rivera,-1
Hospital integrado san bernardo,-73.61380071666491,5.935417038427346,Barbosa,-1
Hospital Santa Margarita,-75.50488522608087,6.349718670497168,Copacabana,-1
ESE Únidad de Salud Ibague - Puesto de Salud Curalito,-75.36034852594712,4.41192986132225,Ibagué,-1
,-73.60853864167161,5.081465474167487,Chocontá,250840
ESE Únidad de Salud de Ibagué - Puesto de Salud Coello Cócora,-75.29025184317346,4.400243728098701,Ibagué,-1
CLINICA HIPERBARICA,-74.20238147790842,11.236626886187935,Santa Marta,470004
Clínica Bahía,-74.19515946249605,11.232701724750797,Santa Marta,470003
ESE HOSPITAL EL SALVADOR,-73.81383542263406,5.304880241753665,Cundinamarca,-1
San Juan de Dios,-73.12909084648048,6.557471768184598,San Gil,684031
Oncomedic - Salud@rte,-75.22086862799793,4.43699057834462,Ibagué,73002
,-72.90882172333629,11.545329446402349,Riohacha,44001
Hospital santa teresa de jesus,-73.26383136491826,11.293595748392192,Dibulla,-1
antiguo hospital san jose,-72.24790044383958,11.377329117076897,Maicao,-1
E.S.E. Sor Teresa Adele,-75.15471780996225,1.909681061304326,Puerto Rico,-1
Hospital Sagrado Corazón de Jesus,-72.68987526451288,5.997701535986181,Socha,57
Hospital San Cayetano,-75.05383012206165,5.293802969976639,Marquetalia,-1
Hospital Toribio,-76.26935838140189,2.96067088496784,Toribío,-1
Veterinaria Animal's Help,-74.1125389590957,4.696764784612014,Distrito Capital,111011
clinica veterinaria animal zone,-74.12317073271905,4.600518827050848,Puente Aranda,111631
Clínica Cañaveral,-73.10356954387873,7.071740168453346,Floridablanca,681004
Hospital,-75.4390925667678,7.163836664848446,Valdivia,-1
San Antonio,-74.76650677935773,4.778751448494404,Ambalema,-1
INVERSIONES DENTALES DE RIOHACHA S.A,-72.91385337981136,11.549157377762668,Riohacha,440001
FUNDACIÓN RENAL DE COLOMBIA,-72.91531845266705,11.545928836298287,Riohacha,44001
Hospital Santa Isabel Consultas Medicas,-75.55774787773947,6.460423159575555,San Pedro de Los Milagros,123456
ANASU AINWA IPS-I,-72.90668785842638,11.547730777842531,Riohacha,44001
I.P.S MULAMANA S.A.S,-72.91914403709447,11.539532857443675,Riohacha,440001
SOCIEDAD MEDICA CLINICA RIOHACHA SAS,-72.91240096362945,11.547073720452744,Riohacha,44001
CITY OPTICA RIOHACHA SAS,-72.90571865896243,11.55007854892142,Riohacha,440001
Clarence Lynd Newball Memorial hospital,-81.70926617936459,12.571498694569414,"Archipiélago de San Andrés, Providencia y Santa Catalina",88001
Hospital,-73.69413354723213,3.69190216667397,Meta,-1
Hospital Integrado San Juan,-73.95082623061683,6.328229398598012,Cimitarra,-1
IPS Profamilia Tuluá,-76.19755430495178,4.081877084982324,Tuluá,-1
Metrosalud La cruz,-75.53677870293222,6.270096792957133,Medellín,0500
IPS IDIME - Contratista de Nueva EPS,-75.68212962114026,4.820607320181665,Pereira,661002
Hospital,-70.36238470325404,-3.779863450132609,Puerto Nariño,-1
Nueva eps,-75.51241644990131,5.043897616505717,Villamaría,176001
IPS ESE Hospital Antonio Roldán Betancur,-75.60568666419782,5.742124735370993,La Pintada,057
ESE Centro de Salud Nuestra Señora del Pilar,-77.7007269338875,0.884783850762858,Nariño,-1
Urgencias,-77.7003666796891,0.884768092784896,Nariño,-1
Sentro de Salud,-74.34139944917371,4.732359458447689,Bojacá,-1
Cancha Microfutbol Altablanca,-74.02901958039901,4.734211523772927,Distrito Capital,110131
IPS ESE Hospital Nuestra Señora de Fátima,-74.8152808224673,4.284754681050828,Flandes,252432434
Hospital universitario del Caribe,-75.50403178069975,10.400393827046543,Cartagena,130015
ESE Hospital San Vicente de Paúl,-75.034529113624,5.151031666289271,Fresno,-1
Hospital Mental de Antioquia,-75.56490292174549,6.324551168028364,Bello,051058
Hospital Del Sur,-75.62178134321451,6.164954367186624,Itagüí,055413
Puesto salud 0al,-72.53399432898601,7.90928315142267,Cúcuta,540013
Hospital San Vicente de Paul de Remedios,-74.69325037054475,7.030482429376548,Remedios,-1
Centro de Salud,-73.89976367648379,4.501931552476236,Fómeque,251640
,-74.1149060085519,4.720583219765047,Distrito Capital,110041
Electrofisiatría SAS,-74.07156243287037,4.698647695340924,Distrito Capital,11121
UMI unidad Materno infantil - Talapuin,-72.26776362652308,11.716628389902695,Uribia,-1
Clínica Palma Real,-76.29749584362214,3.540515859085843,Palmira,763531
I0s niña ceci,-72.52983506099325,7.898269917385903,Cúcuta,540013
Drogueria Dallas,-75.54230472405646,6.266865317826642,Medellín,0500
Hospital Carlos Holmes Trujillo,-76.49396446888612,3.418834764887549,Comuna 13,760020
Hospital,-73.48327956446565,5.493168716253507,Samacá,154067
ESE San José de Pare,-73.54728830332631,6.017895384749892,San José de Pare,154460
Hospital San Vicente de Paul,-75.5708950605052,4.636478868045884,Salento,631020
Cruz roja,-75.06458008051975,4.924443174885482,Líbano,-1
Hospital Anzoategui,-75.09621363455368,4.628713118574638,Anzoátegui,-1
Centro de Salud Caquiona,-76.78262992192619,1.904072394614786,Almaguer,-1
IPS ESE Hospital Municipal Rubén Cruz Vélez - Puesto de Salud San Rafael,-76.04157194839652,4.094305351912851,Tuluá,-1
IPS ESE Hospital Municipal Ruben Cruz Velez - Puesto de Salud La Santa Cruz,-76.1722603195641,4.08995908366029,Tuluá,-1
Lineas Hospitalarias,-75.58621650895412,6.239175281597767,Medellín,0500
centro de salud,-74.08990673087979,4.698212842204271,Distrito Capital,111021
Defensa civil,-75.33734053701195,6.082840046918903,El Carmen de Viboral,054030
Hospital Universitario Samaritano,-74.00341906881226,5.028231671836352,Zipaquirá,250251
Puesto de salud san cayetano,-74.02337244077391,5.334637087667033,San Cayetano,-1
Puesto de salud san cayetano,-74.02406797109926,5.334763235309794,San Cayetano,-1
IPS ESE Hospital Municipal Rubén Cruz Vélez - Puesto de Salud Farfán,-76.21595736010246,4.092041399865678,Tuluá,-1
IPS ESE Hospital Municipal Ruben Cruz Velez - Puesto de Salud Victoria,-76.19068743077689,4.080145886700848,Tuluá,-1
IPS ESE Hospital Municipal Rubén Cruz Vélez - Puesto de Salud Portales del Río,-76.19858201009988,4.104036322402123,Tuluá,-1
IPS ESE Hospital Municipal Rubén Cruz Vélez - Puesto de Salud San Antonio,-76.19497896520173,4.09507045203452,Tuluá,-1
IPS ESE Hospital Municipal Rubén Cruz Vélez - Puesto de Salud Villa Colombia,-76.20093145755942,4.098871477485659,Tuluá,-1
IPS ESE Hospital Municipal Rubén Cruz Vélez - Puesto de Salud Nariño,-76.23722317046301,4.094664432644805,Tuluá,-1
IPS ESE Hospital Municipal Rubén Cruz Vélez - Puesto de Salud Tres Esquinas,-76.22056581428629,4.118070059066525,Tuluá,-1
IPS ESE Hospital Municipal Rubén Cruz Vélez - Puesto de Salud La Marina,-76.10873253430753,4.045286641049614,Tuluá,-1
IPS ESE Hospital Municipal Rubén Cruz Vélez - Puesto de Salud Aguaclara,-76.19515330878774,4.113767628167551,Tuluá,-1
Hospital San Vicente de Paul,-73.89240570660195,4.484834733116116,Fómeque,251640
,-73.92396181185056,4.531077190010222,Choachí,-1
centro de salud jenesano,-73.36427816471193,5.383338292038047,Jenesano,153601
centro de salud raizal,-75.5447521559641,6.266671444406228,Medellín,0500
Puesto de Salud Pavitas,-76.55715722947285,3.660124779181558,La Cumbre,760517
Cruz Roja,-73.99917505977842,5.028799294319271,Zipaquirá,250251
IPS Fundacion Salud Integral,-76.0608257667193,8.173206986494193,Tierralta,-1
PUNTO DE ATENCION ARGELIA,-77.24585345387757,2.261643881082705,Argelia,-1
San Juan de DIOS cali,-76.52763122117285,3.454818275211437,Comuna 3,76001
Hospital de Tubará,-74.97682691871108,10.877037624169049,Tubará,-1
S San Antonio,-72.636462508549,6.043349883583346,Socotá,151620
,-75.39661651806472,7.286857857726119,Valdivia,-1
Espíritu Santo,-76.59520092777777,2.478466533280027,Popayán,10004
Centro de Salud Santa Rita,-68.36541865184573,4.865422171327253,Vichada,-1
SOMA,-75.56455792261086,6.248883285672377,Medellín,0500
Hospital San Rafael de Jericó,-75.78809431161208,5.788785868328574,Jericó,056010
IPs Los Olivos,-72.54010213800953,7.903813624325835,Cúcuta,540013
Clínica La Merced,-74.79864785762882,10.983702622651009,Barranquilla,080006
I.P.S. Palaima,-72.91044286722908,11.546750933361551,Riohacha,44001
Lab de Colombia I.P.S.,-72.91113294931736,11.54651867082461,Riohacha,44001
Salud Total,-72.90952261807966,11.54704228831585,Riohacha,44001
I.P.S. Asociacion de Cabildos y/o Autoridades tradicionales de la Guajira,-72.91105156103754,11.547104649675475,Riohacha,44001
I.P.S. SERVICIO DE SALUD ESPECIALIZADA,-72.90938465195343,11.545932691973746,Riohacha,44001
E.P.S.I. PUSAKAWI,-72.90947316485094,11.54591182103485,Riohacha,44001
Hospital Psiquiátrico San Camilo,-73.13119026176835,7.111264446134811,Bucaramanga,680006
Materno infantil colsubsidio,-74.03821125923811,4.742219929341019,Distrito Capital,110131
Clínica Casanare,-72.39140876827298,5.348208646190443,Casanare,850001
Antiguo Hospital Yopal,-72.39578797740502,5.350089796719686,Casanare,850001
Clínica Versalles,-75.49780670885085,5.062826887537625,Comuna La Estación,170004
Hospital San Carlos,-77.01245986292525,1.667218167299211,San Pablo,-1
Centro de Salud El Espino,-72.49803571291454,6.483682354148812,El Espino,151220
Hospital,-75.82678702067973,6.557321899755863,Santa Fe de Antioquia,-1
Sardinata,-72.80124510906518,8.081467391536222,Sardinata,-1
IPS ESE Hospital Departamental San Rafael,-76.07225558134381,4.38993289754788,Zarzal,762520
Norizal,-75.28337801201893,7.053113987040177,Campamento,-1
Clínica Mediciona Integral,-75.87100901981384,8.759943477582425,Montería,230002
Clínica Norte,-72.49788886197095,7.879376017985379,Cúcuta,540006
Hospital Las Mercedes,-72.84993013636306,5.724825744506319,Monguí,-1
Cruz Roja Colombiana UM Ipiales,-77.6363211442735,0.823588916797519,Ipiales,524060
"Cruz Roja Colombiana, Sede Nueva",-77.63708716640453,0.821007793534278,Ipiales,524060
"Hospital Local, San Juan de Dios",-75.16641056488929,5.379497452546843,Pensilvania,-1
hospital,-72.98454601590065,5.870863224403308,Santa Rosa de Viterbo,150487
Hospital Geriátrico San Isidro,-75.52914547135018,5.096117879105094,Comuna Atardeceres,17001
Totoguampa,-76.52640603838599,2.636488961248688,Piendamó,-1
Medicina Legal Sede Boyacá,-73.35621251074515,5.534571881350359,Tunja,150002
Clínica de estética dental,-76.6254621128051,2.447485929503301,Popayán,10004
Hospital Pablo Tobón Uribe,-75.57972941881201,6.277569259636323,Medellín,0500
centro de salud la esmeralda,-75.600999001029,1.597590116731993,Florencia,180001
Salud Total,-74.13726263979144,4.632044757448057,Kennedy,110831
Clínica Esimed,-75.51495432254418,5.068563964983781,Comuna Cumanday,170001
Hospital Ramón María Arana ESE,-75.17153987053632,4.875962917482127,Murillo,-1
Centro Médico Santa Rosa,-75.45998202967586,6.649794575965416,Santa Rosa de Osos,-1
Prosalco IPS,-75.4599446463877,6.648457075675992,Santa Rosa de Osos,-1
Puesto De Salud,-76.05702633382978,4.172113385606139,Bugalagrande,-1
Clínica la Carolina,-74.04110578186102,4.704441853547678,Distrito Capital,110121
Centro Internacional de Especialistas CIE - Complejo HIC,-73.06945142610611,7.035044699273868,Floridablanca,681011
Clínica Servimédica,-73.84073881725008,8.590082868666656,Río Viejo,-1
Hospital Local La Candelaria,-73.83979736188563,8.588340354815927,Río Viejo,-1
,-74.7538630136966,10.790942738084226,Sabanagrande,-1
PUESTO DE SALUD SAN VICENTE,-76.66100146607984,5.685048836263178,Quibdó,-1
Puesto de Salud Humbo,-74.27538047847494,5.59822036601264,Quípama,-1
Hospital San Rafael,-77.29136752338587,1.223201431193814,Pasto,520002
centro Médico,-75.13006110067285,4.762868161075744,Murillo,-1
Antigua Clínica Palermo,-77.28550823779146,1.225539646903115,Pasto,520002
E.S.E. Hospital Andrés Girardot Güicán,-72.5014660067883,6.458589869713421,Guacamayas,151220
Hospital de Nazareth EPS,-71.28193103009306,12.174879860710575,Uribia,-1
Centro de Saludd e Manta,-73.53837934608126,5.010899823911274,Cundinamarca,-1
Centro Médico San Camilo,-74.0883798833977,4.521927839782137,San Cristóbal,110441
Centro De Salud San Sebastián,-77.35681862014465,1.290041576946521,Nariño,-1
Fundación Hospital San Pedro,-77.29144882784666,1.22403341890282,Pasto,520002
Clínica Los Andes,-73.35971103331075,5.543991464136752,Tunja,15001
CLINICA SANTA BARBARA,-73.36272667443451,5.083757421771253,Garagoa,152860
Hospital Universitario San Juan de Dios,-75.50154260691431,10.389520570792769,Cartagena,130013
IPS San Marcos de León,-75.4595376211696,6.646526723375132,Santa Rosa de Osos,-1
Hospital Mental,-77.29507886247305,1.209799857666781,Pasto,52001
Urgencias Ese Camilo Trujillo,-76.13398603510288,1.723295446462913,Palestina,-1
Clínica de Hipertensión Arterial y Cuidados Coronarios - CHACC,-74.05716182030407,4.690619759938414,Barrios Unidos,111211139
IPS Clínica Médico Quirúrgica Alvernia,-76.18993213748192,4.082969917518085,Tuluá,-1
Centro de Atencion Medica Baranca de Upia,-72.96733822014251,4.570507422738103,Meta,-1
hospital san martin,-73.96747721654714,5.860123659505149,Florián,685061
Regional Jose padilla villafañe,-73.60462974112664,8.308935144582904,Aguachica,205010
Clínica Partenon,-74.09783944786224,4.692066476426163,Distrito Capital,111051
IPS Clínica Panamericana,-76.64016237840984,7.852048247611691,Apartadó,057840
HOSPITAL SAN RAFAEL,-76.03202781052897,5.219585827421923,Pueblo Rico,-1
ESE San Francisco de Asis,-75.94049424275099,2.012490719602596,Elías,-1
BOMBEROS,-75.95833286054196,4.949219829209284,Balboa,-1
HCO-CAMI Samper Mendoza,-74.0810951713496,4.617147098023565,Distrito Capital,110099
San Juan De Dios,-75.80698997121227,2.269898798423156,Pital,-1
Centro de Salud,-74.23166390810219,5.525455472001738,La Victoria,-1
Puesto de salud,-75.78000577504964,2.66884084438459,Páez,-1
Hospital San Roque,-73.37121444104511,6.344653989323604,Chima,-1
HOSPITAL NUESTRA SEÑORA DE LOS REMEDIOS,-72.73494484169589,6.659533173986574,San José de Miranda,-1
Hospital Santa Ana,-72.85549882137444,6.876978433951621,Guaca,-1
Puesto de salud Hospital Manuela Beltran Nodo Socorro,-73.2889268668388,6.404710074104742,Palmas del Socorro,-1
HOSPITAL NUESTRA SEÑORA DE GUADALUPE,-73.4201929187731,6.242497868015761,Guadalupe,-1
ESE Hospital Andrés Girardot Güicán,-72.45748984887427,6.442271980615232,Panqueba,151280
PUESTO DE SALUD,-73.29060534294929,6.538007564092169,Palmar,-1
HOSPITAL MUNICIPAL SAN SEBASTIAN DE SURATA,-72.98461910609632,7.366068435277441,Santander,-1
PUESTO DE SALUD NODO HATO,-73.30824346561636,6.542068093265527,Hato,-1
ESE Sanatorio de Contratacion,-73.47358002611325,6.289208873297241,contratación,683071
CENTRO DE SALUD MOLAGAVITA,-72.80774753809008,6.675767998424334,Molagavita,-1
ESE HOSPITAL DEL CARMEN,-73.50946245068488,6.701755670118644,El Carmen,-1
HOSPITAL INTEGRADO SABANA DE TORRES,-73.49147094698003,7.396559787365902,Santander,-1
San Rafael,-73.29843873437913,6.267117194017004,Oiba,-1
E.S.E SAN JOSE,-73.14201733373565,6.445462887334372,Valle de San José,683521
san juan de dios,-73.28368792589826,6.897292060111653,Betulia,-1
San Juan de Dios,-73.2248707702252,6.632014044763423,Barichara,684041
CENTRO DE SALUD NUESTRA SEÑORA DEL CARMEN,-72.87237921999461,7.310446544913162,Vetas,-1
PUESTO DE SALUD,-73.09692546069019,6.732414995546719,Jordán,-1
,-73.33553980385315,6.44177468229995,Simacota,3115061129
,-74.17539627591742,4.928541338804109,Cundinamarca,-1
hos,-73.33826585022229,6.443259871723257,Simacota,3173744737
Hospital Local,-72.9550610789262,4.087404279573008,Meta,-1
Hospital Local,-73.79067605652757,5.919067717192263,Sucre,-1
Hospital san Roque de Curiti,-73.0665743378418,6.6053792901441,Curití,-1
DADIS,-75.54621387605853,10.41878187859055,Cartagena,3060
ESE Santana,-73.48666560189065,6.05204686249715,Santana,154440
urgencias de Blas de Lezo,-75.49469635222123,10.390481639810645,Cartagena,130013
Hospital,-76.91304303139356,0.414144429978705,Valle del Guamuez (La Hormiga),-1
SAN JOSE DE FLORIAN,-73.97218105678908,5.80269119423636,Florián,6845
Hospital Universitario Samaritano,-74.00208567565542,5.028009551402249,Zipaquirá,250251
Clínica Del Norte,-72.49801333323308,7.879744486448885,Cúcuta,540006
ESE san benito,-73.50856483267403,6.12858285856484,San Benito,-1
PUESTO DE SALUD VADO REAL,-73.40920717737873,6.070727526280933,Suaita,683049
,-73.92121472690447,5.923338967411411,Sucre,685061
PUESTO DE SALUD SAN JOSE DE SUAITA,-73.4491294278229,6.160264189446849,Suaita,-1
CENTRO DE SALUD,-72.08072455851028,4.312099550506986,Meta,86084
DROGUERIA KALU,-72.07986893383433,4.312153027049249,Meta,86084
clinica casanare,-72.39120408219749,5.348440238175129,Casanare,850001
visionamos,-72.39159325396183,5.348913480428308,Casanare,850001
,-73.37906082442487,4.971496748549669,Almeida,-1
Centro de Salud ESE San Pedro de Iguaque,-73.44897805065158,5.639401326856358,Chíquiza,-1
rosario pumarejo lopez,-73.25451865139733,10.469333639544203,Valledupar,200001
centro atenci,-73.87150333556299,3.369768193357203,Meta,-1
,-74.07499616332443,4.62472836180595,Distrito Capital,110099
ESE PRIMER NIVEL GRANADA SALUD,-73.6992154113072,3.543877840448744,Meta,504001
CARRERA 12 No 13A-08,-73.70476657814095,3.540846022251827,Meta,504001
Cruz Roja Colombiana Seccional Meta.,-73.7094236473632,3.539988134462021,Meta,504001
OPTICA DR. MEJIA DEL ARIARI,-73.70908987997882,3.54564072232418,Meta,504001
IPS GRANADA,-73.70663515581542,3.539629724282321,Meta,504001
SALVADOR SALUD E.U SEDE SALUDCOOP GRANADA No. 2,-73.7084707087914,3.540410498562949,Meta,504001
SALVADOR SALUD SEDE GRANADA,-73.6989510460811,3.54596149775864,Meta,504001
Hospital san francisco,-73.52453185530538,5.63063712507909,Villa de Leyva,15401
ORTOSONRISA GRANADA,-73.70762497476119,3.54286648001181,Meta,504001
CENTRO DE REHABILITACION INTEGRAL DE TERAPIAS EU CRIT EU,-73.71285176194212,3.546584692259586,Meta,504001
LUZ SORAYA ANGEL ANGEL EU,-73.70861345260244,3.539683368462647,Meta,504001
NODILAB IPS GRANADA/ CENTRAL DE ESPECIALISTAS GRANADA,-73.70816602661104,3.537929036128418,Meta,504001
NODILAB IPS GRANADA SEDE 3/ CLINICA GRANADA,-73.70951785995486,3.539738772842611,Meta,504001
REHABILITAR I.P.S. GRANADA,-73.70456113769417,3.535899861189137,Meta,504001
CENTRO DE ESPECIALISTAS GRANADA,-73.70428830674588,3.540437320653098,Meta,504001
IPS METSALUD S.A.S GRANADA / ESTABLECIMIENTO PENITENCIARIO DE MEDIANA SEGURIDAD Y CARCELARIO DE GRAN,-73.70688946275772,3.540119478884748,Meta,504001
COMPAÑIA VITAL DE COLOMBIA S.A.S,-73.70930034956751,3.539819239113086,Meta,504001
VITAL IPS GRANADA,-73.70917294463926,3.539681440624918,Meta,504001
OPTICA VISION SIGLO XXI E.U.,-73.70750385626033,3.542710744250854,Meta,504001
SER CONDUCTOR Granada,-73.70772455177088,3.540243195775588,Meta,504001
IPS EDEN SALUD S.A.S,-73.70734074442457,3.54368304501898,Meta,504001
PROINTEGRA GRANADA,-73.70542036658848,3.539281120929331,Meta,504001
Puesto de salud,-73.54737044597742,3.80938744778166,Meta,-1
CENTRO DE SALUD DE PRIMER NIVEL,-73.37570085471873,3.268835829912689,Meta,-1
Centro de Salud Niño Jesús,-76.65787903950964,5.681635138557709,Quibdó,-1
Medicos Sin Fronteras,-74.07284846827427,4.626446232861355,Teusaquillo,110099
Hospital ortopédico,-76.54369237257686,3.419680498917756,Comuna 19,76000
Hospital mama dominga,-76.52768771520024,2.641277458712693,Piendamó,-1
HOSPITAL,-73.8363605301274,3.796220819000581,Meta,-1
Centro medico Colsudsdio,-74.12021108270848,4.701133264908009,Distrito Capital,111011
prosalud ocupacional,-74.07090872824186,4.624206253057281,Teusaquillo,110099
,-74.07028964087347,4.626363084381893,Teusaquillo,110001000
,-74.92666751464498,10.554423367800439,Sabanalarga,-1
Puesto De Salud Frailes,-75.66418782212124,4.812366652076633,Dosquebradas,660099
centro de salud Covarachia,-72.73874737588959,6.499815170824945,Covarachía,151040
Hospital Municipal,-74.04302180110746,3.385584844645621,Mesetas,-1
HOSPITAL MUNICIPAL,-73.24181847552785,3.711565860061938,Meta,-1
Hospital Universitario San José,-76.59992471694926,2.450380452126211,Popayán,190001
Clínica La Estancia,-76.59716614879582,2.450681530088218,Popayán,190001
hospital universitario,-73.11395530864394,7.128671395912363,Bucaramanga,680002
Centro de Salud Municipal,-73.71410074933401,4.352915228010431,El Calvario,-1
Hospital Federico Arbelaez,-74.68650905727938,4.067016054474692,Cunday,-1
Hospital Educardo Santos Nivel II,-77.13083261994096,1.604467468285861,La Unión,521520
Centro de Salud Luiis Acosta E.S.E,-77.12738966939341,1.59981417092007,La Unión,521520
Hospital Luis A coral E.S.E,-77.05082123536044,1.507516089753608,San Bernardo,-1
Urgencias delNorte SAS,-75.55657307019068,6.333082185259343,Bello,051058
Compensar EPS Fontibón,-74.15313452782179,4.670536971391783,Fontibón,110921
Hospital San Juan de Dios,-72.60012922140568,7.601474940276859,Chinácota,-1
Prosalud,-74.07797953412098,4.593403764722979,Candelaria,110321
,-74.84402245226832,1.332052681480548,Cartagena del Chairá,-1
IPS UNIVERSITARIA SEDE PASO REBOLO,-74.7744678271729,10.96640639781441,Barranquilla,080004
Clínica La Asunción,-74.80707108358497,10.989748740867157,Barranquilla,080006
Centro de Salud,-75.06522012264608,9.394697293561762,San Pedro,-1
Clínica de la Polícia Regional Caribe,-74.78745734633992,10.928391533256388,Soledad,083001
Hospital San José,-72.44753382428478,6.410057393053307,El Cocuy,151280
Centro de Salud Chapa,-76.6323828826174,2.193392055197563,Sotará,-1
,-72.77461571886388,6.53086324892223,Covarachía,151040
coosalud,-72.7390828196546,6.500259327874119,Covarachía,151040
coosalub,-72.73907393483724,6.500272655100162,Covarachía,151040
Clínica de Occidente,-74.13574350366028,4.629514596156099,Distrito Capital,110821
Hospital Nuevo Bosque,-75.50542032677947,10.389454353757685,Cartagena,130013
Hospital,-76.32483677358384,2.777514146866935,Jambaló,-1
veterinaria Animalitos,-73.33991867770906,5.56875914982416,Tunja,150004
Puesto de Salud Santa Mónica (Ant. La Castellana),-75.66329883747065,4.842888765749763,Dosquebradas,16601
Clínica Los Remansos,-75.21970287290456,4.436851354932912,Ibagué,730006
Hospital Del Norte,-73.13449960477932,7.148782934386873,Bucaramanga,680001
Los Comuneros Hospital Universitario,-73.11807233184471,7.125934955983297,Bucaramanga,68006
Clínica Adelita de Char,-74.7829592818209,10.90184747082941,Soledad,083010
,-75.24161425744754,4.441535665340439,Ibagué,73001
E.S.E. Centro de Salud Santa Bárbara,-72.90671342323105,6.990551042657899,Santa Bárbara,-1
Hopital Pedro Leon Alvarez Díaz,-74.46683161268021,4.628232835522795,La Mesa,252601
Clínica,-73.05524653097892,6.997614975376422,Piedecuesta,681011
Urgencias Hospital San Antonio,-74.41674236514366,4.272700833735058,Arbeláez,-1
Clínica De Cancer De Bogotà,-74.10717806146398,4.59287335789017,Antonio Nariño,747
Hospital Piamonte,-76.32848373965463,1.117072790695943,Piamonte,-1
Hospital Isnos,-76.21661324402578,1.924113189826528,Isnos,-1
ESE Pitaliyo,-76.04995301337972,1.860868461440134,Pitalito,41551
Laboratorio Clínico,-72.40744904873807,8.364405741594908,Norte de Santander,-1
IPS CAFE SALUD,-77.62379874857032,0.829723547911186,Ipiales,524060
Hospital Venancio Diaz,-75.62183104790033,6.148108082912358,Sabaneta,055450
Medico Quirurjica,-72.49806823469886,7.881476439101647,Cúcuta,47
IPS EMSSANAR,-77.6393403057966,0.827013343339075,Ipiales,524060
CEGINOB,-72.49887415468899,7.881685567585805,Cúcuta,47
Los Andes,-72.49813830740939,7.88041755327373,Cúcuta,47
Puesto de Salud,-75.95083382322971,4.373122320181125,Zarzal,-1
Clínica San Diego,-72.49894825071304,7.88237816424504,Cúcuta,5400
Hospital Nuestra Senora del Pilar,-72.79230111546484,10.95523063867509,Barrancas,-1
Hogar San Camilo,-74.8333265570857,10.96478156588421,Barranquilla,080020
Centro San Camilo,-74.83237487579937,10.965589497531113,Barranquilla,080020
Madre Bernarda,-75.47739836718495,10.393890056917115,Cartagena,BOLÍVAR
centro de salud,-74.98080505377627,4.216804436041826,Espinal,-1
Hospital San Vicente Fundacion,-75.56438341138679,6.26380298950221,Medellín,0500
POLICLINICA,-75.56564824057567,6.263968364451813,Medellín,0500
Hospital San Rafael,-74.37136877633255,4.333484551530688,Fusagasugá,252212
centro de ortopedia y traumatologia,-75.59122343881482,6.258744930032151,Medellín,0500
grupo de apoyo socorristas voluntarios de medellin,-75.59000504536952,6.257685457471013,Medellín,0500
Hospital Jorge Cristo Sahium,-72.47150464243748,7.83242696665377,Norte de Santander,541030
La Estrella,-75.64279075115698,6.157607545236004,"La Estrella, Antioquia",055413
Clínica Tundama,-73.03601911565113,5.827557032009935,Zona Urbana,150461
Hospital Alcides Jimenez,-76.60476660713647,0.690190760153001,Puerto Caicedo,-1
,-72.92180713537076,11.542056061756,Riohacha,44001
,-72.9191356551913,11.539659340362562,Riohacha,44001
EPS,-72.9069610246508,11.537337469364473,Riohacha,24-58
Farmaplus,-72.90423514591974,11.534685854295532,Riohacha,24-58
IPS MULAMANA,-72.91914722221767,11.546555886474692,Riohacha,440001
Nueva Eps,-72.91543085398861,11.542928450238293,Riohacha,44001
,-72.26624541240126,11.381509423646634,Maicao,-1
,-75.55258822960295,6.294777977403783,Medellín,0500
hospital,-75.21820544590261,3.934170097611229,Ortega,-1
Hospital Nuestra Señora de la Candelaria,-75.44532970855727,6.281503641166921,Guarne,-1
Puesto de salud Lorenzo,-77.26432381571072,1.198195950913373,Pasto,00059
Centro Medico Santa Ana,-75.44397628265185,6.280463195526011,Guarne,-1
Hospital San Antonio,-75.51503906358528,5.046082862482081,Villamaría,176001
Ips interlaken,-75.23283128020718,4.444170684241101,Ibagué,73001
Medicina Legal,-78.7700337305561,1.810269761828692,Tumaco,-1
Jorge Cavelier,-74.02561862318635,4.916019697472223,Cundinamarca,-1
E.P.S. Sanitas,-73.352733601833,8.237078178323799,Ocaña,-1
Hospital San Rafael de El Espinal E.S.E,-74.87894866932591,4.152482633097634,Espinal,733520
Clínica de la Policía,-75.47931983466844,5.05720673764074,Comuna Ecoturística Cerro de Oro,170002
Saludcoop Oficinas,-72.64906252067556,7.370841929134741,Pamplona,-1
Hospital,-74.35399812019575,3.240808254443039,La Uribe,-1
Anolaima,-74.46674980530524,4.763670979761713,Anolaima,-1
Centro Salud,-75.13886846925145,3.068275327157494,Tello,-1
,-73.23758494387297,8.21481324510495,Ocaña,-1
Centro Medico Cruz Blanca,-74.22075486112186,4.577985086197259,Soacha Central,250053
Nuestra Señora de Guadalupe,-75.75964956882149,2.023428851786946,Guadalupe,-1
Clínica Medicadiz,-75.21982231502479,4.438653045020033,Ibagué,73001
Farmaplus,-72.90437646480724,11.536205493340873,Riohacha,24-58
E.S.E. Centro de Salud Arcabuco,-73.4414580585814,5.758475984443805,Arcabuco,154201
Clínica La Merced,-73.12005046099365,7.136343351887064,Bucaramanga,680001
Hospital Civil de Ipiales,-77.61364105539047,0.828298289095585,Ipiales,524060
Hospital de Guatavita,-73.83415357502182,4.935627232108942,Cundinamarca,-1
Clínica SOMOS,-73.63865683143081,4.138304224784463,Villavicencio,500005
,-73.90356344464944,7.344850988498195,Santander,-1
Hospital Militar,-74.06209440268363,4.634240899898543,Distrito Capital,54122
Clínica El Bosque,-74.03077097906711,4.7118161681407,Distrito Capital,110121
Hospital,-77.41780802984415,3.255657298829107,Buenaventura,-1
,-71.281991631253,12.174750192668483,Uribia,-1
Unidad Renal,-75.57811053803309,6.194832331600878,Medellín,0500
Quirustetic,-75.57774416504537,6.194872229459975,Medellín,0500
Clínica Teleton,-74.03060786723135,4.856215153605319,Chía,25001
NUEVA EPS,-74.09297132231809,4.744496538061981,Suba,110011
Centro medico,-72.75004802538619,5.985848854346585,Paz de Río,151640
Clínica de la Policía,-75.59877762904995,6.162071243952028,Envigado,055421
Hospital Universitario Mayor - Méderi,-74.08295603767316,4.623672996377366,Distrito Capital,110099
Hospital San Juan de Dios,-75.23893732903102,6.215997726761401,Peñol,-1
Cami Suba,-74.08428951464903,4.743580396045104,Suba,110011
Hospital Raul Orejuela,-76.29852556042702,3.536101697417564,Palmira,763531
Hospital de Villeta,-74.47011580998165,5.006596722460046,Villeta,-1
,-74.06740048266859,4.646665562610707,Teusaquillo,111311091
Clínica del Parque,-75.66299532875674,4.544627793775675,Comuna Quimbaya,630004-400
CENTRO MEDICO FAMILIAR LA FLORA CRUZ BLANCA EPS S.A.,-76.515416022221,3.484689617922186,Comuna 2,760050
PROVIVIR LABORATORIO CLÍNICO No.2,-76.49489083682485,3.430579571433299,Comuna 13,760020
ÓPTICA FRANCESA,-76.53156116029479,3.451898690698044,Comuna 3,760044
AUDIOVIDA,-76.52909151634374,3.467807542921378,Comuna 2,760046
MEDICINA ELECTRODIAGNOSTICA,-76.53509647941532,3.413496246937314,Comuna 10,720025
CENTRO ODONTOLÓGICO FAMILIAR VERSALLES CRUZ BLANCA EPS S.A.,-76.52848776785815,3.46080504955313,Comuna 2,760046
PUESTO DE SALUD DOCE DE OCTUBRE,-76.50135076960069,3.432204990096722,Comuna 12,760020
CONSUBSALUD IPS E U,-76.52000150999014,3.385572187971832,Comuna 17,76026
FUNDACIÓN PARA EL DESARROLLO DE LA SALUD FAMILIAR Y SOCIAL- FAMISALUD,-76.53489414027271,3.449361991521613,Comuna 3,760044
CICLO VITAL COLOMBIA LIMITADA,-76.5363103466329,3.448941471439383,Comuna 3,760044
ÓPTICA UNIVISUAL,-76.53011125868383,3.468513969720846,Comuna 2,760046
LABORATORIO CLÍNICO OSCAR COLLAZOS Y CIA,-76.54265578261138,3.41729609892198,Comuna 19,76000
CENTRO DE RECONOCIMIENTO DE CONDUCTORES COLOMBIA EN MOVIMIENTO LTDA,-76.52155274881045,3.47212941983571,Comuna 2,760046
OFTALASER S.A.,-76.52996030060768,3.470263021456049,Comuna 2,760046
PROVIDA # 1,-76.52565082891005,3.453087831301275,Comuna 3,76001
CENTRO DE ESTÉTICA CARMEN GALINDO E.U.,-76.54404575361464,3.402321745083469,Comuna 19,760035
ÓPTICA CALIMA LTDA,-76.51612613705785,3.480604194496379,Comuna 2,760050
LABORATORIO CLÍNICO SAN MARTIN SEDE RODEO,-76.50410967303024,3.435656238728399,Comuna 12,760020
CENTRO DE SALUD BELALCAZAR,-76.52333851328157,3.43858806082045,Comuna 9,76001
ASOCIACIÓN DE DISCAPACITADOS DEL VALLE - ASODISVALLE,-76.49312284198847,3.433988994368178,Comuna 13,760020
ÁNGEL DIAGNOSTICA S.A - SEDE CHIPICHAPE,-76.52494532411994,3.476919761318385,Comuna 2,760050
LABORATORIO CLÍNICO SAN MARTIN T,-76.55899026787786,3.452601178003022,Comuna 1,760101
ASOCIACIÓN PARA LA SALUD MENTAL INFANTIL DEL ADOLESCENTE SIMA,-76.54530111125294,3.401981272176556,Comuna 19,760035
PRIMSALUD PRIMERO SU SALUD EMPRESA UNIPERSONAL,-76.53855770251178,3.436337687456415,Comuna 9,760043
ORTOCLUB S.A,-76.55526912196399,3.405685486646036,Comuna 19,760040
IPS COMFANDI SAN FERNANDO,-76.54305568321179,3.43054394834482,Comuna 19,760042
PUESTO DESALUD CALIPSO,-76.49926853721432,3.424859425431578,Comuna 13,760020
LABORATORIO BIOIMAGEN LTDA CALI,-76.5248472558528,3.462646469861312,Comuna 2,760046
SONRÍA DAMA SALUD CALI NORTE,-76.52674257179841,3.46769472250466,Comuna 2,760046
CENTRO DE SALUD DECEPAZ,-76.46348183397694,3.426342687017154,Comuna 21,760021
CENTRO DE SALUD EL DIAMANTE,-76.50272297096922,3.418779192869493,Comuna 13,760020
FISIOSALUD TERAPIAS INTEGRALES LTDA,-76.54147393426392,3.451111043256816,Comuna 3,SAN ANTONIO
IPS LA SAMARITANA SANTA,-76.51604432968288,3.477665080148597,Comuna 2,760050
ODONTOLAB - X DEL VALLE,-76.53119378147869,3.464858286470729,Comuna 2,760046
CENTRO DE SALUD ALFONSO YOUNG VALERO,-76.52265731601067,3.412297634783499,Comuna 10,760033
FUNDACIÓN LIGA COLOMBIANA CONTRA LA EPILEPSIA CAPITULO VALLE - HELENA NADER DE ZACCOUR (LICCE),-76.54124980217306,3.428135073191783,Comuna 19,760042
ÁLVAREZ MEDINA LTDA LABORATORIO MICROBIOLÓGICO,-76.5222617739999,3.462647140413566,Comuna 2,760046
PROVIDA # 11,-76.54647994211527,3.374839244777178,Comuna 18,760032
MULTIOPTICAS # 10,-76.53694510816024,3.454199774576267,Comuna 2,760045
RED DE SALUD DEL SURORIENTE ESE - CENTRO DE SALUD ANTONIO NARIÑO,-76.50797138346034,3.416373167563535,Comuna 16,760020
CORPORACIÓN CENTRO INTERNACIONAL DE ENTRENAMIENTO E INVESTIGACIONES MEDICAS,-76.54003643786966,3.451029990253147,Comuna 2,760044
CENTRO DE RECONOCIMIENTO DE CONDUCTORES A PRUEBA U.T. CALI,-76.51532776078058,3.492182536445114,Comuna 2,760050
GRUPO MEDICO ODONTOLÓGICO COLOMBIANO DE SALUD COLSALUD LTDA SEDE I,-76.4981229825076,3.469694141687683,Comuna 5,750004
DEPI LIGHT CALI,-76.54098677805148,3.41292937882568,Comuna 19,76000
CENTRO DE DIAGNOSTICO CITOPATOLOGICO DEL OCCIDENTE LTDA,-76.53784264235206,3.41446418911579,Comuna 19,76000
SERVICIOS DE DIAGNOSTICO MEDICO S.A.,-76.53048844432665,3.462053534030815,Comuna 2,760046
CENTRO DE SALUD PUERTO MALLARINO,-76.4800481626852,3.449399877723948,Comuna 7,76004
UNIDAD DE SALUD OCUPACIONAL LTDA,-76.52693728340913,3.461706858515555,Comuna 2,760046
REHABILITACIÓN IMPLANTOLOGIA Y ESTÉTICA ORAL E U,-76.54116103781845,3.423195785289693,Comuna 19,720025
PIEL CANELA,-76.52135066112494,3.483039891739566,Comuna 2,760050
CLÍNICA INTERNACIONAL DEL OZONO - PORTAL DA SAUDE I.P.S.,-76.52398836223462,3.475894319284151,Comuna 2,760050
PROVIDA # 8,-76.51147267205398,3.472053731250043,Comuna 4,760050
SERVICIOS MÉDICOS EMPRESARIALES LA TERMINAL,-76.52623504756124,3.470782447995731,Comuna 2,760046
Centro de Salud Obrero,-76.51974032988724,3.447708828758692,Comuna 9,76001
SENTIR FISIOTERAPIA AVANZADA LTDA,-76.5295398643445,3.464383116379821,Comuna 2,760046
E.S.E. RED DE SALUD DE LADERA EMPRESA SOCIAL DEL ESTADO HOSPITAL CAÑAVERALEJO,-76.53362017480937,3.45775554554055,Comuna 2,760045
LABORATORIO CLÍNICO SAN MARTIN SEDE B,-76.50068113935615,3.446329670410535,Comuna 8,76001
CENTRO RADIOLÓGICO ODONTOFACIAL CENTRIX,-76.53134842759225,3.460431635766753,Comuna 2,760045
FUNDACIÓN PARA LA SALUD UNISALUD SEDE ORIENTE,-76.49639631045385,3.420647183810757,Comuna 13,760020
IPS COMFANDI CALIPSO,-76.49960775283576,3.426978370553826,Comuna 13,760020
SONRÍA DAMA SALUD CALI CENTRO,-76.53374221531958,3.451244566974395,Comuna 3,760044
ÁNGEL DIAGNOSTICA S.A. SEDE AV. DEL RIO,-76.52570053359587,3.461260941266744,Comuna 2,760046
SECCIONAL SANIDAD VALLE POLICÍA NACIONAL SEDE TEQUENDAMA,-76.53490051051912,3.461363032847373,Comuna 2,760045
PUESTO DE SALUD FLORALIA,-76.49471540359143,3.492601547784744,Comuna 6,760006
FISIOPRAXIS,-76.54411523959196,3.398905532807049,Comuna 17,760035
REHABILITAMOS,-76.5286888497153,3.468028489889036,Comuna 2,760046
SALUD TOTAL S.A. ENTIDAD PROMOTORA DE SALUD UNIDAD DE ATENCIÓN PRIORITARIA,-76.52899931540884,3.459983958318247,Comuna 2,760046
TRADI-SALUD LTDA (TRADICIONES EN SALUD LTDA) # 1,-76.52555535903291,3.461865444123617,Comuna 2,760046
UNIDAD MEDICA INTEGRAL LER LTDA,-76.4951072575648,3.442655630792473,Comuna 12,760020
GENOMICS,-76.54192437774046,3.41932032853839,Comuna 19,76000
PUESTO DE SALUD ULPIANO LLOREDA,-76.48882946354493,3.441260295371194,Comuna 13,760020
CENTRO MEDICO BURGOS,-76.49387813528344,3.452433120844375,Comuna 8,76001
SERVICIOS DE LABORATORIOS CLÍNICO LTDA,-76.52188903076578,3.482127270122049,Comuna 2,760050
SALUD INTEGRAL IPS LTDA ODONTOLOGÍA,-76.53760442866387,3.431148032106535,Comuna 19,720025
PUESTO DE SALUD CRISTÓBAL COLON,-76.5257288644286,3.42336384244831,Comuna 10,720025
MULTIOPTICAS # 1,-76.54052250443469,3.414514648172883,Comuna 19,76000
CEFES EU CENTRO DE FISIOTERAPIA ESPECIALIZADO,-76.5331232117702,3.458599351733028,Comuna 2,760045
IPS Comfandi La Merced,-76.513493213633,3.483244829272166,Comuna 2,760050
FUNDACIÓN DE APOYO A LA SOLIDARIDAD FAS,-76.52508454753165,3.462635741025252,Comuna 2,760046
CINCO ELEMENTOS CENTRO HOLÍSTICO & SPA,-76.53174966929717,3.468112141282688,Comuna 2,760046
CLÍNICA DE OFTALMOLOGÍA DE CALI S.A. SEDE SANTA MÓNICA,-76.52979333309646,3.468198893980542,Comuna 2,760046
CENTRO DE SALUD MELÉNDEZ,-76.54476651346853,3.376034420350692,Comuna 18,760032
CENTRO MEDICO POR SALUD,-76.50184010510796,3.440538948784081,Comuna 8,76001
CENTRO DE BIOMEDICINA REPRODUCTIVA DEL VALLE S.A.,-76.54475335388055,3.422533950215126,Comuna 19,76000
ÓPTICA UNIVER ROOSEVELT,-76.49495520984122,3.408380352335342,Comuna 15,760020
IPS SALUDCOOP CALI CENTRO,-76.54595330713887,3.42111766003589,Comuna 19,76000
RADIOLOGÍA ESPECIALIZADA LIMITADA RADES LTDA,-76.52477324364779,3.462594921156807,Comuna 2,760046
AME CALI,-76.52571637539286,3.467626493812816,Comuna 2,760046
PROVISALUD LTDA,-76.46848323178155,3.412260335314357,Comuna 21,760021
ESCENOGRAFÍA SAN JOSÉ GRUPO ESCENOGRÁFICO DEL SUR,-76.53689414618894,3.430089565373777,Comuna 19,720025
PUESTO DE SALUD ALIRIO MORA BELTRÁN,-76.4818888286221,3.432920469351615,Comuna 14,760020
FUNDACIÓN PARA LIMITACIONES MÚLTIPLES FULIM,-76.49173396063262,3.424269674724286,Comuna 13,760020
ENFERMERAS SERVICIOS INTEGRALES LTDA,-76.53268257512038,3.460710753142422,Comuna 2,760045
ÓPTICA ALEMANA SEDE SUR,-76.54045972397992,3.415896740187179,Comuna 19,76000
LA ÓPTICA DEL NORTE LTDA.,-76.53043220175635,3.462753842040968,Comuna 2,760046
COOPERATIVA DE TRABAJO ASOCIADO FÉNIX SALUD CTA - FÉNIX SALUD CTA,-76.54307026772331,3.392709629981169,Comuna 17,760001
PUESTO DE SALUD NÁPOLES,-76.54949223047777,3.388561593738672,Comuna 18,760035
CLÍNICA DE ALERGIAS Y TERAPÉUTICAS ALTERNATIVAS FUNDALERGIAS LTDA,-76.54611901736462,3.434568183877445,Comuna 19,760101
FUNDACIÓN NUEVO AMANECER VALEJ,-76.540256546647,3.435539478817191,Comuna 19,760042
IPS COMFANDI EL MORICHAL,-76.50717032497406,3.398483839258375,Comuna 15,760025
NÉMESIS DENTAL GROUP,-76.54138977995605,3.416934838895202,Comuna 19,76000
FUNDACIÓN PARA LA ORIENTACIÓN FAMILIAR FUNOF CAPITULO CALI,-76.52131470276034,3.480031039957368,Comuna 2,760050
CENTRO DESALUD MARROQUÍN CAUQUITA,-76.48201003094199,3.427700471512225,Comuna 14,760021
PROVIDA # 3,-76.52079267783068,3.429672146595749,Comuna 10,76001
PUESTO DE SALUD PRIMITIVO CRESPO,-76.51761920547015,3.438709095502276,Comuna 8,76001
POLICLINICO Y LABORATORIO DE DIAGNOSTICO DEL SUR N. 2,-76.51705770177657,3.410321517291294,Comuna 16,760020
PUESTO DE SALUD LOS ÁLAMOS,-76.50805662741563,3.484907547404703,Comuna 2,750004
IPS Comfandi El Prado,-76.51592513901976,3.435667470478649,Comuna 11,76001
IMAX RADIOLOGÍA ORAL SUR,-76.53397665715133,3.456031555695802,Comuna 2,760045
CLÍNICA SANTIAGO DE CALI,-76.52774311958022,3.461727980911547,Comuna 2,760046
JEES GESTIÓN COMERCIAL & CLÍNICAS ODONTOLÓGICAS,-76.52826816199502,3.45866883771032,Comuna 2,760046
LA ÓPTICA LIMITADA SEDE IMBANACO,-76.54136446660847,3.412465524304054,Comuna 19,720025
PUESTO DE SALUD POLVORINES,-76.5562152711942,3.375874158362024,Comuna 18,9999999
FUNDACIÓN HOGARES CLARET - CENTRO DE REEDUCACIÓN DE ADICTOS,-76.5337140521249,3.459657147913504,Comuna 2,760045
CENTRO DE RADIOLOGÍA ORAL Y MAXILOFACIAL,-76.51068083366118,3.429851184047521,Comuna 11,760020
UNIDAD DE ATENCIÓN BÁSICA NORORIENTE,-76.50771053863359,3.472804246860193,Comuna 4,750004
ÓPTICA OCAMPO,-76.5333508642604,3.447626769926643,Comuna 3,760044
CENTRO DE SALUD FLORALIA,-76.49182322790142,3.49748249764076,Comuna 6,760006
INSTITUTO DE GENÉTICA MEDICA CAROLINA ISAZA,-76.52887643670832,3.461537041157271,Comuna 2,760046
CENTRO DE SALUD MANUELA BELTRÁN,-76.46857585181161,3.427580694115875,Comuna 21,760021
CENTRO MEDICO IP SALUD LTDA,-76.49409740587045,3.41806513853814,Comuna 13,760020
MÉDICOS EN SU CASA S.A.,-76.53747870011627,3.451726945502031,Comuna 2,760044
PROVIVIR LABORATORIO CLÍNICO SEDE PRINCIPAL,-76.49421223794393,3.418179970611618,Comuna 13,760020
CENTRO DE ORTOPEDIA Y FRACTURAS,-76.52654006501773,3.460590137555755,Comuna 2,760046
SOTO LIMITADA,-76.53532002477296,3.457980180545576,Comuna 2,760045
CENTRO DE SALUD TERRÓN COLORADO,-76.55767548254606,3.44995836393241,Comuna 1,760101
PUESTO DE SALUD VISTA HERMOSA,-76.58572384513559,3.460497266068586,Comuna 1,760101
PUESTO DE SALUD LA CAMPIÑA,-76.53038316762279,3.483507937212778,Comuna 2,760050
CENTRO DE REHABILITACIÓN ESPECIALIZADA CERES IPS LTDA,-76.54063733650817,3.423229731997537,Comuna 19,760042
SOCIEDAD CARDIOVASCULAR DE IMBANACO,-76.52050274779991,3.485517079403479,Comuna 2,760050
FISIOTER LTDA,-76.53161622939864,3.464946631730186,Comuna 2,760046
FORMA VITAL DE COLOMBIA S.A.,-76.52810857055859,3.465340329722238,Comuna 2,760046
OPTIKUS,-76.52112703194827,3.47244667487081,Comuna 2,760046
COMFENALCO VALLE,-76.53282640857883,3.448280893650292,Comuna 3,760044
PUESTO DE SALUD EL VERGEL,-76.50073620846,3.413302624973994,Comuna 13,760020
ORTHO CLINIC,-76.52479922754762,3.470538199337255,Comuna 2,760046
FUNDACIÓN SALUD HOMBRE,-76.5287411527911,3.46691285857662,Comuna 2,760046
GRUPO CARDIOLÓGICO DE LOS REMEDIOS SEDE SANTILLANA,-76.5244259813993,3.460451836153396,Comuna 3,760046
SONRISALUD E.U.,-76.53031376546451,3.464963060260402,Comuna 2,760046
GLOBAL THERAPY,-76.52808795107678,3.482566062753165,Comuna 2,760050
ÓPTICA ALEMANA SEDE NORTE,-76.53041091172229,3.463484492540601,Comuna 2,760046
CLÍNICA SOCIAL DE ORTODONCIA,-76.50118606520333,3.485900635292694,Comuna 4,750004
PUESTO DE SALUD 7 DE AGOSTO,-76.51322608237885,3.421501299744136,Comuna 11,760020
SALUD FAMILIAR S.A. I. P.S.,-76.54625522329118,3.423422180494413,Comuna 19,76000
SALUD COOMEVA MEDICINA PREPAGADA S.A. UPP TEQUENDAMA,-76.54510966858446,3.420052068685436,Comuna 19,76000
RED DE SALUD DEL SURORIENTE ESE - PUESTO DE SALUD UNIÓN DE VIVIENDA POPULAR,-76.50537827407555,3.409450889008667,Comuna 16,760020
CENTRO MEDICO IMBANACO CMI SEDE No.7,-76.5449272783714,3.419977469747181,Comuna 19,76000
CARMENZA FLÓREZ ESTÉTICA INTEGRAL E.U.,-76.499014146453,3.4804531526012,Comuna 5,750004
CUERPO & COLOR CLÍNICA - SPA LTDA,-76.5441003198043,3.398033060505696,Comuna 17,760035
CLÍNICA NUEVA SONRISA ALFONSO LÓPEZ E.U.,-76.48380400967822,3.464891562626349,Comuna 7,76004
PUESTO DE SALUD PETECUY II,-76.48272911441525,3.479309861008318,Comuna 6,76004
ORGANIZACIÓN VACUNEMOS COLOMBIA S.A,-76.5468154696993,3.438342722514562,Comuna 19,760101
COOPERATIVA DE TRABAJO ASOCIADO PARA LA INVESTIGACIÓN Y PROMOCIÓN DE LA SALUD - COMEDICA IPS SEDE,-76.52332376113199,3.463220043495483,Comuna 2,760046
FUNDACIÓN OBRA SOCIAL SAN FRANCISCO DE PAULA DE LAS HERMANITAS DE LOS POBRES DE SAN PEDRO CLAVER,-76.4970493445301,3.436102994167555,Comuna 12,760020
ODONTÓLOGOS,-76.52703736333301,3.467897061647278,Comuna 2,760046
PROVIVIR LABORATORIO CLÍNICO No.3,-76.5028990747549,3.418959571425802,Comuna 13,760020
CENTRO DE SALUD EL VALLADO,-76.50274744612649,3.406650998072593,Comuna 15,760025
LABORATORIO BIOIMAGEN LTDA C.M.F. VERSALLES,-76.51761710999436,3.465852799282288,Comuna 4,760046
ROSEMBERT CENTER-CENTRO DE ESTÉTICA FACIAL Y CORPORAL,-76.52357563732235,3.435867462688378,Comuna 9,76001
"""CORPORACIÓN SERVICIO DE REHABILITACIÓN ANTONIETA FAGE """"SALUD EDUCACIÓN""""""",-76.50823817943837,3.410290923344718,Comuna 16,760020
CENTRO DE SALUD LUIS H. GARCÉS,-76.51184172725071,3.428487280763136,Comuna 11,760020
SER OCUPACIONAL,-76.52507348341946,3.487220365947366,Comuna 2,760050
"""COOPERATIVA DE PROFESIONALES EN SALUD C.T.A . """"COOPENSALUD""""""",-76.53534634394892,3.447949137922677,Comuna 3,760044
"""OPTOMETRAS PARA EL CUIDADO DE LA SALUD VISUAL COOPERATIVA INTEGRAL """"COOPVISUAL""""""",-76.54221363721898,3.417472118888639,Comuna 19,76000
CLINICENTRO CIUDAD JARDÍN,-76.53326243518192,3.363895664355766,Comuna 22,AA 1040
SERVIDOC S.A.,-76.5253490803958,3.466048349083309,Comuna 2,760046
PUESTO DE SALUD SENA,-76.50373097864487,3.463194143414682,Comuna 4,750004
HOSPITALITO INFANTIL NIÑO DIOS,-76.48410802130633,3.422013685485126,Comuna 14,760020
CLÍNICA BASILIA S.A.,-76.54391600175352,3.419115558643853,Comuna 19,76000
FUNDACIÓN DAR AMOR - FUNDAMOR,-76.5391303541366,3.309677994230157,Cali,0764001
CLÍNICAS GERIÁTRICAS,-76.5385619772824,3.43596435748907,Comuna 19,760043
ODONTOMEDIC,-76.52705387568227,3.429194294295826,Comuna 10,720025
CITY DENT LIMITADA,-76.53971842846326,3.400404552370588,Comuna 17,760033
SINDICATO NACIONAL DE TRABAJADORES DE CARTÓN DE COLOMBIA - SINTRACARCOL,-76.52411635389608,3.467825480194165,Comuna 2,760046
Provida # 2,-76.52104170417397,3.449105337646444,Comuna 9,76001
MEJÍA JIMÉNEZ & CIA,-76.54291687889524,3.430472366891706,Comuna 19,760042
DENTILASER CALI LIMITADA SEDE CENTRO,-76.53272113187498,3.452202786145165,Comuna 3,760044
CENTRO DE MEDICINA BIOLÓGICA DR. O`BYRNE Y CIA S. EN C.,-76.54280481284981,3.436112549537171,Comuna 19,760101
CENTRO DE SALUD EL RODEO,-76.50398042408331,3.435725724705719,Comuna 12,760020
LABORATORIO CLÍNICO SAN MARTIN SEDE E,-76.514494264329,3.41001188978808,Comuna 16,760025
CORPORACIÓN IPS SALUDCOOP OCCIDENTE CLÍNICA SALUDCOOP CALI,-76.5357952786829,3.45408158974152,Comuna 2,760045
LABORATORIO CLÍNICO SAN MARTIN SEDE M,-76.5540660674015,3.417769844089349,Comuna 20,760040
CRC 124 ROOSEVELT,-76.5412248241016,3.42304608449902,Comuna 19,720025
PUESTO DE SALUD RICARDO BALCÁZAR,-76.49055973981704,3.435379635923681,Comuna 13,760020
CORPO BELLO MEDICAL SPA,-76.54183251208168,3.450239744421935,Comuna 3,SAN ANTONIO
PERINATOLOGOS LTDA,-76.52247643454018,3.462639093786521,Comuna 2,760046
PREVIMEDIC S.A. AGENCIA CALI,-76.48655880597522,3.442844223613889,Comuna 13,760020
SONRÍA DAMA SALUD CALI NORTE,-76.54579061439827,3.398016045242258,Comuna 17,760035
ÓPTICA VALLE,-76.53149645200229,3.451930374292033,Comuna 3,760044
LABORATORIO BIOIMAGEN LTDA PASO ANCHO,-76.53424395604354,3.409465222063091,Comuna 10,720025
CENTRO DE SALUD SANTIAGO RENGIFO,-76.49820470606353,3.436369790145562,Comuna 12,760020
FISIOTERAPIA - CENTRO ESPECIALIZADO E.U.,-76.51558407937964,3.482151577641247,Comuna 2,760050
LENTES Y MONTURAS SANTA MARÍA SALUD VISUAL IPS KM 30,-76.4765147714024,3.425381869456373,Comuna 14,760021
CENTRO ODONTÓLOGOS ESPECIALISTAS,-76.52407511493246,3.46277203077085,Comuna 2,760046
CUIDADO MEDICO INTEGRAL E U,-76.53589007800778,3.429787565402449,Comuna 19,720025
RED DE SALUD DEL SURORIENTE ESE - PUESTO DE SALUD MARIANO RAMOS,-76.51459375751968,3.402289977670449,Comuna 16,760025
CENTRO DE SALUD LA RIVERA,-76.49030962382633,3.474680619704628,Comuna 5,76004
DENTSALUD,-76.51369907317493,3.437327254945075,Comuna 8,76001
FUNDACIÓN PARA EL SERVICIO INTEGRAL DE ATENCIÓN MEDICA - FUNDACIÓN SIAM - SEDE CALI,-76.4934689307705,3.406313375012758,Comuna 15,760020
CENTRO MEDICO FAMILIAR PASOANCHO CRUZ BLANCA EPS S.A.,-76.53422727605623,3.409516854586656,Comuna 10,720025
CRC 351 CALI LA 70,-76.51716783998427,3.492597356833159,Comuna 2,760050
FUNDACIÓN SERVICIOS INTEGRALES PARA LA MUJER SI MUJER,-76.52764647623664,3.457304934425935,Comuna 3,76001
CLÍNICA LOS ANDES S.A.,-76.54164995423056,3.41871062890155,Comuna 19,76000
INVERSIONES ISAZA Y OSORIO SCS,-76.53991925886329,3.417500617359423,Comuna 19,720025
CENTRO MEDICO OCUPACIONAL SANTA CLARA LIMITADA,-76.523218149152,3.462841349110107,Comuna 2,760046
CENTRO DE SALUD RAMIRO GUERRERO,-76.53101625276948,3.436344476797984,Comuna 9,720025
HUMAN FINE LIMITADA,-76.54175238108733,3.419289399315687,Comuna 19,76000
CENTRO ODONTOLÓGICO DEL VALLE LTDA,-76.52564311755913,3.477277081850673,Comuna 2,760050
BRACKET`S ODONTOLOGÍA INTEGRAL,-76.53959001770664,3.39799559339852,Comuna 17,760033
A A SPLENDOR CENTER,-76.54260373099268,3.417281262953367,Comuna 19,76000
LABORATORIO CLÍNICO SAN MARTIN PRINCIPAL A,-76.5106172150161,3.442659737925027,Comuna 8,76001
LAFAM VISIÓN CENTER No.2,-76.52868273092598,3.461847171574675,Comuna 2,760046
COOMEVA PREPAGADA - SINERGIA SALUD,-76.53767098097507,3.375630664074833,Comuna 17,760032
RIESGOS DE FRACTURAS .A.,-76.53684150783701,3.430077076338051,Comuna 19,720025
LABORATORIO CLÍNICO SAN MARTIN SEDE G,-76.48179964517233,3.461004538848641,Comuna 7,76004
CENTRO DE RECONOCIMIENTO DE CONDUCTORES AVALAMOS LTDA,-76.54065820744707,3.42437302359042,Comuna 19,720025
CENTRO ELECTRO AUDICTIVO NACIONAL AL SERVICIO DE LA REHABILITACIÓN LTDA.,-76.51833284070635,3.478594884667615,Comuna 2,760050
E.S.E. RED DE SALUD DEL ORIENTE EMPRESA SOCIAL DEL ESTADO HOSPITAL CARLOS HOLMES TRUJILLO,-76.4906734822431,3.421804724639003,Comuna 13,760020
LABORATORIO CLÍNICO SAN MARTIN SEDE H,-76.48247522656813,3.465111084670468,Comuna 7,76004
UNIDAD DE ATENCIÓN BÁSICA SAN FERNANDO,-76.53884495033354,3.434840428092542,Comuna 19,720025
CENTRO DIABETOLOGICO DEL VALLE LTDA - CEDIVA LTDA,-76.54421741499164,3.391409764437043,Comuna 17,760035
PUESTO DE SALUD COMUNEROS II,-76.49617586640039,3.429518422491526,Comuna 13,760020
C R C 350 AV. 3 NTE,-76.53543812578867,3.448765283834689,Comuna 3,760044
LABORATORIO MEDICO DR. GUILLERMO MONTES,-76.52408441884498,3.463215684905833,Comuna 2,760046
PROVIDA # 10,-76.48605555650869,3.476736784372122,Comuna 6,76004
SALUD COOMEVA MEDICINA PREPAGADA S.A. UNIDAD DE PROMOCIÓN Y PREVENCIÓN,-76.52987111715791,3.468223285318771,Comuna 2,760046
CORPORACIÓN DE LUCHA CONTRA EL SIDA,-76.54034103623098,3.424012098839768,Comuna 19,720025
ÓPTICAS GMO T 24,-76.53057335300579,3.453104846564713,Comuna 3,760045
MULTIOPTICAS # 5,-76.54091041891355,3.413189636919213,Comuna 19,76000
CENTRO DE SALUD PANAMERICANO,-76.5332859045108,3.412425374987862,Comuna 10,720025
CLÍNICA ODONTOLÓGICA COMFANDI SANTA ROSA,-76.53430162353737,3.448028598364772,Comuna 3,760044
DENTISALUD CHIPICHAPE,-76.52695086209226,3.479664583150623,Comuna 2,760050
A. SÁNCHEZ RADIÓLOGOS & CIA,-76.52479428222475,3.462889628872375,Comuna 2,760046
E.S.E. RED DE SALUD DEL NORTE EMPRESA SOCIAL DEL ESTADO HOSPITAL JOAQUÍN PAZ BORRERO,-76.48054085095373,3.466542378456353,Comuna 7,76004
PUESTO DE SALUD POPULAR,-76.50949722511406,3.472633172216433,Comuna 4,750004
CLÍNICAS MATIZZ,-76.53811371310069,3.427289925894797,Comuna 19,720025
FUNDACIÓN FONDO DE DROGA PARA EL CÁNCER FUNCANCER,-76.54346094823023,3.430096019439219,Comuna 19,760042
PUESTO DE SALUD LA PAZ,-76.56044301933589,3.454904357357037,Comuna 1,760101
HUBERT RUIZ ÓPTICA LTDA,-76.53210967203847,3.461350795268743,Comuna 2,760045
PROVIDA # 7,-76.51715753024337,3.409499839323189,Comuna 16,760025
ÁNGEL DIAGNOSTICA S.A. SEDE LA MERCED,-76.53636080569001,3.451027140406069,Comuna 3,760044
SALUD OCUPACIONAL Y MEDICINAS ALTERNATIVAS,-76.52387017739987,3.464289993435585,Comuna 2,760046
COORDINADORA MEDICA DE SALUD IPS,-76.54065317830516,3.416117351878682,Comuna 19,76000
IPS SALUDCOOP CALI SUR,-76.53868091648843,3.398130290582515,Comuna 17,760033
FISIOVIDA LTDA CENTRO DE REHABILITACIÓN FUNCIONAL Y ACONDICIONAMIENTO FÍSICO,-76.5413244011113,3.39951917193838,Comuna 17,760033
VISIÓN 20/20 S.A. ÓPTICA LAFAM,-76.52926510555847,3.46225327478345,Comuna 2,760046
CENTRO DE ESTÉTICA FACIAL Y CORPORAL WORLD TV # 1,-76.52548763325527,3.478678452242264,Comuna 2,760050
CENTRO FISIOTERAPIA GRAN LIMONAR LTDA,-76.54364384135748,3.400105737522466,Comuna 17,760035
SALUD Y VITALIDAD S A,-76.54086096568484,3.398740074038386,Comuna 17,760033
PUESTO DE SALUD EL DIVINO NIÑO,-76.5257568599852,3.416356739033318,Comuna 10,720025
CENTRO MEDICO OCUPACIONAL PORVENIR LTDA,-76.52298697626247,3.469590457545422,Comuna 2,760046
CORAZÓN Y AORTA,-76.54149094952736,3.43551257290801,Comuna 19,760101
PUESTO DE SALUD BELLA VISTA,-76.55302662758893,3.446012163918311,Comuna 19,760101
DENTAL WORLD CALI E.U.,-76.53421864269595,3.413386024910579,Comuna 10,720025
ORTHODONTPLUS,-76.53831102310139,3.396600257977241,Comuna 17,760033
IPS SALUDCOOP CALI NORTE,-76.5191047301696,3.475653758663071,Comuna 2,760050
ÓPTICA PROFESIONAL ELECTRÓNICA ELECTROVISION LTDA,-76.53149452416456,3.462959198668727,Comuna 2,760046
PUESTO DE SALUD LOS LAGOS,-76.48755264823451,3.426860688633269,Comuna 13,760020
CLÍNICA ORIENTE LTDA SEDE VILLACOLOMBIA,-76.49907055666137,3.447481176268496,Comuna 8,76001
HUBERT RUIZ ÓPTICA LTDA SEDE No.2,-76.54526657781187,3.415118396658471,Comuna 19,76000
PUESTO DE SALUD LA PRIMAVERA,-76.50845552218765,3.423343977337794,Comuna 11,760020
IPS PUNTO DE SALUD ASISTENCIA MEDICA Y ODONTOLÓGICA LA FLORA,-76.52478556504545,3.476833092439591,Comuna 2,760050
IPS COMFANDI SAN NICOLÁS,-76.52359173057644,3.452935783577715,Comuna 3,76001
"""FUNDACIÓN IDEAL PARA LA REHABILITACIÓN INTEGRAL """"JULIO H CALONJE""""""",-76.50023161788896,3.450405035552535,Comuna 8,76001
SER CONDUCTOR CALI,-76.52937943471775,3.464452686176173,Comuna 2,760046
CLÍNICA DE OFTALMOLOGÍA DE CALI S.A. SEDE EL PRADO,-76.51702526381128,3.435860589527778,Comuna 11,76001
CEDIMA IMÁGENES DIAGNOSTICAS,-76.5182080341681,3.41036342680718,Comuna 11,760020
PUESTO DE SALUD ALTO NÁPOLES,-76.55973290449904,3.38412094525637,Comuna 18,9999999
PROVIDA # 5,-76.48028168250761,3.455458652613885,Comuna 7,76004
GRUPO DE ESPECIALISTAS EN CIRUGÍA ENDOSCÓPICA - GECE LTDA,-76.5276374237812,3.454754572747333,Comuna 3,76001
CORPORACION IPS CHIPICHAPE,-76.52552610619082,3.477234166506435,Comuna 2,760050
PUESTO DE SALUD ALFONSO BONILLA ARAGÓN,-76.48122213204368,3.432458458848686,Comuna 14,760021
DARPACOL,-76.54316523468627,3.416910363737941,Comuna 19,76000
CASANAR S A,-76.55255313387866,3.451034265023765,Comuna 2,SAN ANTONIO
MEDES CENTRO DE MEDICINAS ALTERNATIVAS,-76.53958054615605,3.407305624710432,Comuna 17,760033
CENTRO DE ORTOPEDIA Y FRACTURAS SEDE No.2,-76.52668314410491,3.460480418443211,Comuna 2,760046
"""EMERGENCY MEDICAL SERVICE """"PARAMÉDICOS EMS EAT""""""",-76.5311449149832,3.461461855485794,Comuna 2,760046
POLICLINICO Y LABORATORIO DE DIAGNOSTICO DEL SUR E. U.,-76.54122767394868,3.427970452613465,Comuna 19,760042
IPS PUNTO DE SALUD ASISTENCIA MEDICA Y ODONTOLÓGICA EL LIMONAR,-76.54435445910853,3.398027444630571,Comuna 17,760035
SALUD ARMONÍA Y BELLEZA SPA LTDA U,-76.54239166884238,3.402596587688521,Comuna 19,760033
SERVICIOS DE AMBULANCIA AL PACIENTE,-76.5293225215952,3.424855821213214,Comuna 10,720025
PUESTO DE SALUD CALIMA,-76.50198796187993,3.485685974752414,Comuna 4,760002
OFTALMÓLOGOS ESPECIALIZADOS IPS SA - OFTALMOS I.P.S.,-76.5400410479164,3.409734532612049,Comuna 19,76000
CLÍNICA DE ORTODONCIA Y ODONTOLOGÍA ESTÉTICA COES LTDA,-76.52654325014093,3.40214228853651,Comuna 17,760033
MACRODENT,-76.49596757610652,3.470047690363515,Comuna 5,76004
PUESTO DE SALUD CHORRO AZUL,-76.49405583163072,3.432229297615919,Comuna 13,760020
CENTRO DE ESPECIALISTAS CLÍNICA VERSALLES S.A.,-76.53001101112189,3.462543288633242,Comuna 2,760046
PROVIDA # 14,-76.53847396729908,3.452802427498199,Comuna 2,760044
SERVICIOS DE SALUD CLÍNICA Y OCUPACIONAL,-76.53771741671864,3.430284779898699,Comuna 19,720025
CENTRO DE ORTODONCIA Y ODONTOLOGÍA ESTÉTICA LTDA,-76.53391303850624,3.451821241912711,Comuna 3,760044
RENACIMIENTO MEDICAL HAIR CENTER LTDA,-76.54745844549174,3.435707955070995,Comuna 19,760101
CENTRO DE SALUD DIEGO LALINDE,-76.50063570944096,3.446178460877292,Comuna 8,76001
CENTRO DE MEDICINA BIOLÓGICA SANARTE,-76.53318825533883,3.428678891069666,Comuna 19,720025
ORAL CENTER,-76.53031628003546,3.421198964496654,Comuna 10,720025
SERVICIOS COMPLEMENTARIOS DE SALUD - SCS,-76.49116876890163,3.410624942186189,Comuna 15,760020
"""ASOCIACIÓN PROBIENESTAR DE LA FAMILIA COLOMBIANA """" PROFAMILIA CALI""""""",-76.52650075389185,3.462627778217239,Comuna 2,760046
MÉDICOS SAN JOSÉ,-76.52589482611143,3.46742532813667,Comuna 2,760046
SONREIRE LTDA,-76.54267195968451,3.393634992091535,Comuna 17,760035
PUESTO DE SALUD SAN LUIS I,-76.48782790993472,3.481541123633122,Comuna 6,76004
AGA FANO FABRICA NACIONAL DE OXIGENO SA,-76.53907796724177,3.395808671041522,Comuna 17,760033
CENTRO MEDICO CEMED,-76.50248693657585,3.444917738820948,Comuna 8,76001
ALTERNATIVAS EN SALUD,-76.5307704115494,3.460727349310702,Comuna 2,760046
FITNESSPARK CENTRO DE ACONDICIONAMIENTO Y PREPARACIÓN FÍSICA,-76.54337226769465,3.398162644728757,Comuna 17,760035
SERSALUD #1,-76.52619456296891,3.469850296543797,Comuna 2,760046
PUESTO DE SALUD COMUNEROS I,-76.49183680658456,3.410872627424965,Comuna 15,760020
COLMEDICA EPS CENTRO MEDICO VERSALLES,-76.52840101516031,3.464582940951487,Comuna 2,760046
AAA ESTAR BIEN SPA,-76.54096448218903,3.423582023387922,Comuna 19,760042
CENTRO DE SALUD AGUA BLANCA,-76.5185646003291,3.431797126688281,Comuna 11,720025
BIOMÉDICO DE CERTIFICACIÓN PERSONAL BIOCEP IPS CRC LTDA,-76.4962947217874,3.467212763072183,Comuna 5,76004
PUESTO DE SALUD POBLADO II,-76.49021616560596,3.416967444498539,Comuna 15,760020
PROVIDA # 4,-76.5080241056313,3.444654966156463,Comuna 8,76001
CLÍNICA EXCELLENCE S.A.,-76.53422937153202,3.364294559127813,Comuna 22,AA 1040
FUNDACIÓN DE ESPECIALISTAS EDIFICIO COOMEVA NORTE IPS,-76.52982158011017,3.464927437171923,Comuna 2,760046
INSTITUTO MEDICO CUBANO,-76.54686500674705,3.438112974548574,Comuna 19,760101
CLÍNICA CANDELARIA SIES SALUD,-76.52769307961827,3.460927173882368,Comuna 2,760046
SALUD AUDITIVA EMPRESARIAL LTDA. SAE LTDA.,-76.53159560991683,3.412605585906078,Comuna 10,720025
CLÍNICA NUEVA SONRISA S.A. CLINIDENT,-76.53930084204715,3.384952346232154,Comuna 17,760001
LABORATORIO CLÍNICO CENTRO COMERCIAL CALIMA,-76.49746022542367,3.485180965086215,Comuna 6,760002
VÍA SALUD LIMITADA CALI,-76.54468462227453,3.407913983242764,Comuna 19,760040
UBA COOMEVA TEQUENDAMA,-76.54281570932393,3.419802455608931,Comuna 19,76000
CENTRO MEDICO SAN NICOLÁS Y CIA,-76.52736903524159,3.453693675262656,Comuna 3,76001
LABORATORIO CLÍNICO SAN MARTIN SEDE J,-76.51148884912712,3.42842483558448,Comuna 11,760020
LABORATORIO ÁLVAREZ SINISTERRA Y CIA LTDA,-76.52543155832304,3.468219429643312,Comuna 2,760046
PUESTO DE SALUD BELÉN,-76.5535513347276,3.42633807697041,Comuna 20,76000
PUESTO DE SALUD ALFONSO LÓPEZ III,-76.48106010985533,3.455950251235038,Comuna 7,76004
HOLISTICA UNIDAD DE MEDICINA INTEGRAL,-76.54099490849755,3.432640932880759,Comuna 19,720025
FUNCREAR DE OCCIDENTE,-76.54741946964198,3.436097881206621,Comuna 19,760101
VIDENT PLUS,-76.54085275141972,3.398001796006866,Comuna 17,760033
FUNDACIÓN PARA LA SALUD DIVINO SALVADOR PADRE ROBERTO WEBER,-76.54861422612034,3.395848987995777,Comuna 18,760035
PUESTO DE SALUD PETECUY III,-76.48220281471498,3.447636492934322,Comuna 7,76004
SU ÓPTICA,-76.53921258060673,3.418739965562651,Comuna 19,720025
CLINIC DENT IPS LTDA.,-76.53363065218834,3.429887477688254,Comuna 19,720025
Clínica Federman,-74.08150563314801,4.649799891483411,Teusaquillo,111321
Hospital Manuel Uribe Angel,-75.58012571519406,6.166698054503797,Envigado,570
,-76.26762651256817,2.955258941545793,Toribío,-1
Clínica Las Americas del Sur,-75.58359573928887,6.178763971760162,Envigado,3549090
Clínica Nuestra Señora del Rosario,-73.96899467629768,4.715413429525682,La Calera,-1
Centro Salud Pandiaco,-77.28809045070213,1.23066928782626,Pasto,520002
Clínica Bellatriz,-77.28573404626296,1.230064282055196,Pasto,520002
Clínica Saludcoop Los Andes,-77.28627970815955,1.227802760759971,Pasto,520002
Centro de Salud,-73.8805988739727,4.866955891969923,Cundinamarca,-1
Hospital San Francisco,-73.64146476899394,4.818225099480713,Cundinamarca,-1
Centro de salud Assbasalud,-75.50936862226936,5.063661892731773,Comuna La Fuente,170006
Hospital General de Medellin,-75.57274955658234,6.234402793568847,Medellín,0500
Clínica La Sagrada Familia,-75.66814257167655,4.538585866511113,Comuna El Cafetero,630004-046
Policlínica Ecopetrol,-73.85285821104867,7.069146388516288,Barrancabermeja,687031
Urgencias Policlínica,-73.85345902586815,7.069476467863268,Barrancabermeja,687031
Hospital Ismael Dario Rincon,-73.85290112639292,7.070179122806309,Barrancabermeja,687031
Centro de Salud,-73.93589135554227,4.483170422422006,Ubaque,251640
Farmacenter,-74.09788831435775,4.671263430939831,Distrito Capital,111061
Totalfarma,-74.06904476061413,4.664638877585674,Distrito Capital,1112211
Drogas Popular,-74.0788844443876,4.672141435297249,Distrito Capital,1112211
Hospital Departamental,-73.69690770572547,3.547243845125138,Meta,504001
Hospital San Jose,-72.64261356819289,2.566285660666665,San José del Guaviare,5929
Miguel Angel Rangel E.S.E.,-74.9580543054495,10.446737453511929,Manatí,085020
Comfenalco Valle,-77.07599862847499,3.888745798285925,Buenaventura,092
IPS ESE Salud Pereira - Puesto de Salud Morelia,-75.75855598191444,4.773367249171855,Pereira,660008
Centro de Hemodinamia,-75.6615597602002,4.544314981149228,Comuna Quimbaya,630004-400
Nueva EPS,-75.6628594581063,4.545200361581465,Comuna Quimbaya,630004-400
Clínica La Providencia,-75.65932656973769,4.55140523304371,Comuna Quimbaya,630004-404
Jorge Camilo Abril Riaño,-71.89358557821166,5.877001627373403,Paz de Ariporo,-1
Jorge Piñeros Corpas,-74.05682084448298,4.692359172484998,Barrios Unidos,111211139
Ismael Silva,-74.38960612125747,4.401321054113595,Silvania,252211
ESE NORTE III,-76.42135355043654,3.227282628749037,Puerto Tejada,-1
Nueva EPS,-75.21216083642904,4.435520895442181,Ibagué,73002
Hospital,-74.7221806769862,4.149792545093135,Carmen de Apicala,-1
Colsalud EPS,-74.95897882936953,10.446120796895457,Manatí,085020
Medihelp,-75.55637542491384,10.397447420443001,Cartagena,130001
Nuevo Hospital Bocagrande - NHB,-75.55601123122095,10.395602395916427,Cartagena,130001
Centro de Salud,-73.87038133400418,4.992145483198584,Gachancipá,-1
Clínica Las Vegas,-75.57661394922145,6.20345487921449,Medellín,0500
Hospital San Juan de Dios,-67.48456444734111,6.18543496085789,Vichada,990001-990017
